{"type":"FeatureCollection","features":[{"type":"Feature","geometry":{"type":"MultiPolygon","coordinates":[[[[29.14821,40.84799],[29.14623,40.85269],[29.14239,40.85346],[29.14055,40.8509],[29.14457,40.84739],[29.14821,40.84799]]],[[[28.97399,40.87645],[28.96955,40.87582],[28.97001,40.87398],[28.97399,40.87645]]],[[[29.05556,40.90878],[29.05579,40.91049],[29.05308,40.91349],[29.0494,40.91439],[29.0399,40.91278],[29.04064,40.9089],[29.04594,40.90457],[29.0452,40.90278],[29.05117,40.90281],[29.05406,40.90351],[29.05697,40.9055],[29.05556,40.90878]]],[[[29.08321,40.8769],[29.07831,40.87572],[29.07486,40.87239],[29.07613,40.8706],[29.07517,40.86854],[29.08056,40.86799],[29.08494,40.87162],[29.0876,40.87108],[29.08977,40.8691],[29.09717,40.86945],[29.10196,40.87286],[29.10268,40.87544],[29.09919,40.88049],[29.09869,40.88382],[29.09314,40.88482],[29.09123,40.88344],[29.09029,40.88041],[29.08507,40.87736],[29.08321,40.8769]]],[[[28.99551,40.86565],[28.9902,40.86622],[28.99131,40.86397],[28.99351,40.86315],[28.99551,40.86565]]],[[[29.05726,40.88365],[29.05472,40.88127],[29.05316,40.87801],[29.05628,40.87522],[29.06103,40.87487],[29.06306,40.87386],[29.06886,40.87613],[29.07066,40.87968],[29.06877,40.88272],[29.06954,40.88459],[29.06264,40.88554],[29.05999,40.88643],[29.05665,40.88523],[29.05726,40.88365]]],[[[29.12361,40.83807],[29.12508,40.83984],[29.12427,40.84391],[29.12659,40.84625],[29.12519,40.85391],[29.12616,40.85734],[29.1305,40.85988],[29.13752,40.86792],[29.13914,40.87089],[29.13526,40.87469],[29.12921,40.8751],[29.12348,40.87324],[29.12033,40.87164],[29.11495,40.87046],[29.11452,40.86722],[29.11542,40.86449],[29.11304,40.85969],[29.11191,40.85542],[29.11053,40.85304],[29.11259,40.85111],[29.11456,40.84723],[29.11404,40.8449],[29.11092,40.84326],[29.11474,40.83818],[29.12263,40.83856],[29.12361,40.83807]]]]},"properties":{"id":963209,"name":"Adalar"}},{"type":"Feature","geometry":{"type":"Polygon","coordinates":[[[29.50185,41.03199],[29.50533,41.03366],[29.50793,41.03623],[29.50797,41.04015],[29.50987,41.04169],[29.51754,41.04405],[29.52312,41.03998],[29.52483,41.03756],[29.52722,41.03623],[29.52574,41.03426],[29.52707,41.03223],[29.53049,41.03192],[29.532,41.03411],[29.53731,41.03314],[29.53677,41.03546],[29.53861,41.03682],[29.54248,41.03703],[29.54445,41.03544],[29.54678,41.03703],[29.55079,41.0354],[29.55349,41.03889],[29.55679,41.03824],[29.55806,41.03923],[29.56141,41.03786],[29.56658,41.03458],[29.5735,41.03275],[29.57628,41.03437],[29.578,41.03256],[29.58669,41.0317],[29.59235,41.0303],[29.5936,41.02882],[29.59733,41.0289],[29.60026,41.02657],[29.59881,41.02526],[29.59719,41.02051],[29.60019,41.01694],[29.60186,41.01247],[29.60028,41.01086],[29.60202,41.0051],[29.60538,41.00549],[29.60909,41.0074],[29.61018,41.00638],[29.61124,41.00037],[29.61039,40.99247],[29.60687,40.99078],[29.60487,40.98615],[29.605,40.98395],[29.60693,40.98126],[29.61092,40.97998],[29.61432,40.97999],[29.62019,40.97777],[29.62102,40.97622],[29.63365,40.97097],[29.64197,40.97087],[29.64656,40.97016],[29.64835,40.96871],[29.65142,40.96944],[29.65464,40.96809],[29.65563,40.96406],[29.6589,40.96334],[29.66709,40.96341],[29.66879,40.96496],[29.67669,40.96441],[29.6835,40.96996],[29.68381,40.97709],[29.68601,40.9796],[29.68963,40.97963],[29.69105,40.982],[29.69201,40.98878],[29.70083,40.99005],[29.70313,40.99466],[29.70626,40.99613],[29.71205,41.00113],[29.71169,41.00211],[29.71806,41.0029],[29.71948,41.00774],[29.71743,41.00971],[29.71424,41.01117],[29.71348,41.01276],[29.7091,41.01167],[29.70707,41.01261],[29.70459,41.01613],[29.70222,41.0163],[29.69641,41.02262],[29.69615,41.02441],[29.69903,41.02608],[29.70046,41.02816],[29.70583,41.02861],[29.70443,41.03177],[29.70727,41.03197],[29.71374,41.02994],[29.71714,41.02969],[29.71844,41.03198],[29.7214,41.03116],[29.72682,41.03541],[29.72982,41.0411],[29.73243,41.04218],[29.73601,41.04134],[29.73634,41.03714],[29.74066,41.03596],[29.74261,41.03416],[29.74499,41.03477],[29.75061,41.03199],[29.75369,41.02773],[29.75635,41.02656],[29.75902,41.02724],[29.76456,41.02683],[29.76497,41.02548],[29.77124,41.02525],[29.77836,41.02739],[29.785,41.02389],[29.78573,41.02155],[29.7915,41.01924],[29.80028,41.02071],[29.80428,41.01955],[29.81003,41.01898],[29.81156,41.01629],[29.8138,41.01462],[29.81927,41.01499],[29.82275,41.01323],[29.82655,41.01327],[29.82877,41.01489],[29.83204,41.01468],[29.83948,41.01843],[29.84095,41.02081],[29.84533,41.02022],[29.85457,41.02838],[29.85799,41.02856],[29.86223,41.03086],[29.86377,41.0355],[29.86781,41.03756],[29.86846,41.04029],[29.87083,41.04105],[29.87919,41.04075],[29.88043,41.04197],[29.88,41.04697],[29.88132,41.04942],[29.88039,41.05117],[29.88104,41.05439],[29.88247,41.05601],[29.887,41.05816],[29.88795,41.05987],[29.88714,41.0632],[29.89145,41.06257],[29.89282,41.06393],[29.89178,41.06757],[29.8927,41.07075],[29.88885,41.07574],[29.88761,41.08021],[29.89255,41.08568],[29.89292,41.08969],[29.8915,41.09296],[29.90034,41.0909],[29.90305,41.09161],[29.90725,41.09064],[29.90861,41.08903],[29.91287,41.089],[29.92274,41.08796],[29.92784,41.08645],[29.92899,41.08771],[29.93611,41.08688],[29.94133,41.08502],[29.94393,41.08502],[29.94546,41.08268],[29.95424,41.08212],[29.95656,41.08349],[29.95781,41.08662],[29.95612,41.08944],[29.95859,41.09232],[29.95495,41.09871],[29.94896,41.09986],[29.946,41.0993],[29.94359,41.09747],[29.93953,41.09745],[29.93584,41.09841],[29.93182,41.0981],[29.92852,41.097],[29.92658,41.09858],[29.91836,41.09923],[29.91501,41.10105],[29.91563,41.10297],[29.91344,41.10551],[29.91302,41.10772],[29.9157,41.10999],[29.91392,41.11502],[29.91207,41.11605],[29.90953,41.12105],[29.91213,41.12264],[29.91459,41.1259],[29.91512,41.13599],[29.9141,41.14034],[29.91286,41.14243],[29.90918,41.14328],[29.90717,41.14214],[29.90428,41.143],[29.90144,41.14265],[29.89815,41.14352],[29.8919,41.14241],[29.88431,41.14223],[29.8803,41.14101],[29.8791,41.13952],[29.8757,41.13882],[29.87242,41.14219],[29.8698,41.14258],[29.8654,41.14124],[29.86176,41.14363],[29.85586,41.14307],[29.84979,41.13893],[29.84598,41.13864],[29.84361,41.13943],[29.81954,41.1434],[29.81225,41.14777],[29.80187,41.15196],[29.79386,41.15397],[29.7889,41.15215],[29.78946,41.15539],[29.77993,41.15843],[29.77595,41.15622],[29.77287,41.15918],[29.76759,41.16054],[29.76338,41.15898],[29.75863,41.15903],[29.75519,41.15735],[29.75214,41.16012],[29.75027,41.15875],[29.74347,41.16014],[29.74132,41.15864],[29.73747,41.15809],[29.7359,41.15596],[29.73134,41.15536],[29.72426,41.15759],[29.72221,41.15712],[29.71085,41.15919],[29.70864,41.15906],[29.70319,41.1611],[29.70278,41.16373],[29.69969,41.16415],[29.69303,41.16371],[29.68854,41.16258],[29.68643,41.16382],[29.67918,41.16198],[29.67206,41.16374],[29.67102,41.16551],[29.66627,41.16671],[29.66544,41.1651],[29.66005,41.16509],[29.64757,41.16834],[29.64446,41.17043],[29.64103,41.16961],[29.63466,41.17118],[29.63202,41.17431],[29.62806,41.17422],[29.62465,41.1755],[29.62464,41.17818],[29.61996,41.17948],[29.61434,41.17854],[29.6141,41.18097],[29.60952,41.17996],[29.60887,41.17784],[29.6037,41.17539],[29.59879,41.17173],[29.59102,41.17073],[29.57414,41.17221],[29.564,41.17359],[29.55355,41.17562],[29.53064,41.18075],[29.52895,41.18078],[29.52122,41.18301],[29.51242,41.18505],[29.51072,41.18401],[29.48982,41.18831],[29.48142,41.19093],[29.46996,41.19336],[29.46357,41.19517],[29.46124,41.19637],[29.45484,41.19805],[29.44808,41.19817],[29.41137,41.20795],[29.4087,41.20929],[29.40397,41.20928],[29.39989,41.21027],[29.3961,41.21212],[29.3924,41.2122],[29.38901,41.21471],[29.38204,41.21306],[29.37858,41.21146],[29.37624,41.21253],[29.37216,41.21236],[29.36865,41.21115],[29.36663,41.2117],[29.3615,41.21078],[29.35435,41.21175],[29.3512,41.21308],[29.34931,41.21224],[29.33968,41.21521],[29.33647,41.21461],[29.33248,41.21663],[29.33228,41.21437],[29.32972,41.21121],[29.33283,41.20588],[29.33245,41.20361],[29.32605,41.19697],[29.32335,41.19541],[29.32235,41.19264],[29.32214,41.18729],[29.32113,41.183],[29.32326,41.1816],[29.32436,41.17893],[29.32271,41.17641],[29.32271,41.17293],[29.32417,41.16891],[29.32605,41.16942],[29.32818,41.16365],[29.32975,41.16121],[29.32928,41.15784],[29.33228,41.15911],[29.33881,41.15937],[29.3416,41.16013],[29.34508,41.15582],[29.34612,41.1518],[29.35078,41.15347],[29.35387,41.15226],[29.35683,41.14975],[29.35661,41.14696],[29.35374,41.14279],[29.35714,41.14326],[29.36405,41.14082],[29.3654,41.13433],[29.36301,41.13002],[29.35911,41.12536],[29.36175,41.12537],[29.3669,41.12268],[29.37282,41.12584],[29.3801,41.12106],[29.38046,41.11745],[29.38247,41.10895],[29.39054,41.10505],[29.39159,41.10293],[29.3984,41.10012],[29.40137,41.09999],[29.40203,41.09638],[29.40039,41.09426],[29.39514,41.09367],[29.39016,41.08964],[29.39346,41.08693],[29.39943,41.08591],[29.39963,41.08245],[29.39448,41.08139],[29.39479,41.07785],[29.39163,41.07514],[29.38785,41.07354],[29.38943,41.07088],[29.385,41.06967],[29.3824,41.06623],[29.38204,41.06428],[29.3798,41.06264],[29.3761,41.05723],[29.37613,41.05217],[29.37827,41.04896],[29.37532,41.04211],[29.37665,41.03868],[29.37591,41.03489],[29.37944,41.03329],[29.38431,41.02892],[29.39908,41.02453],[29.40468,41.02379],[29.41161,41.02666],[29.41377,41.02661],[29.41956,41.02337],[29.42432,41.02155],[29.42701,41.02134],[29.43071,41.01977],[29.42832,41.01537],[29.43067,41.01405],[29.43318,41.01442],[29.43579,41.01009],[29.4381,41.00921],[29.43444,41.00259],[29.43723,41.00151],[29.44254,40.99643],[29.44534,40.99833],[29.44955,40.999],[29.45339,41.00242],[29.45789,41.00435],[29.46279,41.00792],[29.46619,41.00902],[29.47105,41.01379],[29.47582,41.01639],[29.47591,41.01803],[29.48133,41.02042],[29.48364,41.02378],[29.48364,41.02998],[29.48947,41.03199],[29.49749,41.03578],[29.50185,41.03199]]]},"properties":{"id":1275310,"name":"Şile"}},{"type":"Feature","geometry":{"type":"Polygon","coordinates":[[[28.39338,41.07772],[28.38965,41.08119],[28.39106,41.08348],[28.39098,41.08709],[28.39464,41.0926],[28.39545,41.09483],[28.39169,41.09854],[28.3901,41.10722],[28.38764,41.1126],[28.38728,41.11551],[28.388,41.12014],[28.38721,41.1246],[28.38152,41.12901],[28.38874,41.12994],[28.3858,41.13762],[28.38254,41.14207],[28.38199,41.14444],[28.38539,41.1494],[28.38292,41.15134],[28.38126,41.15511],[28.38398,41.16043],[28.37772,41.16377],[28.3762,41.16245],[28.37232,41.16308],[28.37035,41.16616],[28.37061,41.16982],[28.36936,41.17295],[28.36594,41.17374],[28.37231,41.18298],[28.37468,41.18507],[28.3733,41.18771],[28.37029,41.18946],[28.36847,41.1891],[28.36728,41.19291],[28.36948,41.19437],[28.37404,41.19452],[28.373,41.19761],[28.37671,41.2023],[28.37568,41.20514],[28.37381,41.20559],[28.37399,41.20848],[28.36701,41.20942],[28.36732,41.2122],[28.36086,41.2144],[28.35856,41.21633],[28.35786,41.21838],[28.3521,41.22198],[28.34965,41.22607],[28.3491,41.22997],[28.34645,41.235],[28.34712,41.23858],[28.3441,41.23956],[28.34429,41.24119],[28.33944,41.24181],[28.33445,41.23933],[28.3329,41.24062],[28.32907,41.23921],[28.32486,41.24255],[28.31986,41.24373],[28.31568,41.2466],[28.31884,41.24882],[28.31732,41.25286],[28.31028,41.25815],[28.30762,41.25948],[28.30544,41.26846],[28.30256,41.26927],[28.30263,41.27554],[28.30081,41.27625],[28.29652,41.27559],[28.29329,41.27324],[28.27973,41.29757],[28.27484,41.31261],[28.26719,41.31791],[28.26534,41.32442],[28.27421,41.33388],[28.2765,41.33728],[28.2767,41.33936],[28.27977,41.34256],[28.2814,41.34636],[28.27905,41.34961],[28.2755,41.35174],[28.27111,41.35583],[28.26664,41.35346],[28.26306,41.34719],[28.25233,41.34626],[28.24776,41.34367],[28.24576,41.3448],[28.23796,41.34415],[28.2332,41.34245],[28.22488,41.34316],[28.22217,41.34521],[28.21887,41.34627],[28.21321,41.34105],[28.21268,41.33797],[28.20971,41.33786],[28.20869,41.34153],[28.20494,41.34521],[28.19649,41.34774],[28.17533,41.35491],[28.15984,41.35861],[28.15356,41.35906],[28.14395,41.35782],[28.14062,41.35946],[28.13591,41.36075],[28.13363,41.36303],[28.13436,41.35641],[28.13631,41.35391],[28.13587,41.34929],[28.13183,41.34256],[28.12413,41.33452],[28.12796,41.33346],[28.13079,41.32397],[28.13307,41.32112],[28.13822,41.31987],[28.13817,41.31766],[28.13423,41.31716],[28.13277,41.31375],[28.12552,41.30732],[28.1215,41.30329],[28.11935,41.30282],[28.11708,41.29917],[28.11483,41.29785],[28.10718,41.29897],[28.10212,41.29774],[28.09365,41.29974],[28.09351,41.29709],[28.08849,41.29556],[28.08657,41.29767],[28.08176,41.29915],[28.07865,41.2972],[28.07709,41.29987],[28.07509,41.2967],[28.07633,41.2919],[28.07542,41.29038],[28.07673,41.28792],[28.07214,41.28499],[28.07181,41.28257],[28.06538,41.27768],[28.06263,41.27717],[28.06167,41.27496],[28.0589,41.272],[28.05611,41.2669],[28.05116,41.26711],[28.04586,41.26532],[28.03694,41.25967],[28.03014,41.25612],[28.0234,41.25346],[28.01893,41.2523],[28.01553,41.25228],[28.01337,41.25027],[28.00391,41.24409],[28.00038,41.24062],[27.99883,41.23631],[27.99747,41.2304],[27.99826,41.22264],[28.00222,41.21779],[28.00711,41.21284],[28.01067,41.20711],[28.01131,41.2051],[28.01622,41.20082],[28.01846,41.19688],[28.0199,41.19154],[28.02076,41.18409],[28.02334,41.1813],[28.02149,41.17394],[28.02035,41.17229],[28.01696,41.1715],[28.01582,41.1667],[28.01296,41.16694],[28.01362,41.16234],[27.99216,41.16158],[27.98897,41.16217],[27.98428,41.16199],[27.97997,41.15574],[27.97861,41.15137],[27.98071,41.14379],[27.97882,41.13848],[27.97839,41.13427],[27.97611,41.12798],[27.97336,41.12299],[27.97582,41.12337],[27.97544,41.11776],[27.97245,41.112],[27.97579,41.11104],[27.97298,41.1087],[27.97582,41.10721],[27.97218,41.10084],[27.97826,41.09703],[27.97672,41.09443],[27.97675,41.0916],[27.97519,41.09027],[27.97477,41.08766],[27.97881,41.08455],[27.97844,41.08221],[27.975,41.07963],[27.97561,41.07525],[27.98194,41.0754],[27.98108,41.07225],[27.98399,41.07165],[27.98018,41.06778],[27.97535,41.06561],[27.97751,41.06245],[27.97875,41.05823],[27.97739,41.05168],[27.97813,41.04934],[27.97392,41.04343],[27.9804,41.04366],[27.9817,41.04014],[27.98594,41.044],[27.9923,41.04284],[27.99616,41.03911],[28.00538,41.0401],[28.00641,41.03692],[28.00579,41.03342],[28.00758,41.03206],[28.01873,41.03591],[28.02528,41.03953],[28.03308,41.04168],[28.03798,41.04122],[28.04315,41.04208],[28.05549,41.0478],[28.06462,41.05315],[28.0692,41.05518],[28.07502,41.05673],[28.09072,41.05862],[28.09269,41.05833],[28.1094,41.06089],[28.11727,41.06143],[28.1226,41.0599],[28.12553,41.06354],[28.13253,41.06664],[28.13798,41.06743],[28.14297,41.06903],[28.15205,41.07011],[28.15578,41.06963],[28.15746,41.07084],[28.16443,41.07244],[28.16988,41.073],[28.18163,41.07339],[28.19301,41.07274],[28.19944,41.0719],[28.20639,41.0704],[28.21149,41.07041],[28.21906,41.07683],[28.22199,41.07764],[28.23177,41.07772],[28.23644,41.07724],[28.24237,41.07477],[28.24216,41.07093],[28.2443,41.06961],[28.25001,41.06812],[28.25414,41.06499],[28.25998,41.06252],[28.26508,41.06324],[28.27729,41.06285],[28.27905,41.06371],[28.28466,41.06314],[28.30115,41.06073],[28.31011,41.05914],[28.31313,41.05757],[28.32059,41.05748],[28.32298,41.05797],[28.33598,41.05676],[28.33848,41.05825],[28.34758,41.05717],[28.35164,41.0559],[28.35221,41.05417],[28.3587,41.05352],[28.36322,41.05236],[28.36739,41.05229],[28.37117,41.05307],[28.38148,41.05102],[28.38893,41.04923],[28.39099,41.04809],[28.39234,41.051],[28.39346,41.05808],[28.39363,41.06491],[28.3922,41.07099],[28.39417,41.07614],[28.39338,41.07772]]]},"properties":{"id":1275379,"name":"Silivri"}},{"type":"Feature","geometry":{"type":"Polygon","coordinates":[[[28.5972,40.99701],[28.60264,40.99637],[28.60482,40.99755],[28.61102,40.99195],[28.61409,40.99292],[28.61478,40.99632],[28.61765,40.9994],[28.62018,41.00412],[28.62593,41.00977],[28.6264,41.01669],[28.63177,41.01641],[28.63322,41.01858],[28.63065,41.01962],[28.62666,41.02268],[28.62549,41.02503],[28.62582,41.02959],[28.62338,41.0346],[28.62635,41.04025],[28.62783,41.04466],[28.62812,41.05254],[28.62769,41.05421],[28.62086,41.06683],[28.62102,41.07012],[28.62588,41.07999],[28.63402,41.08863],[28.628,41.09778],[28.62522,41.09966],[28.62019,41.10896],[28.61571,41.114],[28.61274,41.11939],[28.60849,41.11588],[28.60716,41.11211],[28.6038,41.11264],[28.60246,41.11603],[28.6034,41.11898],[28.59456,41.12286],[28.59511,41.12431],[28.59325,41.12872],[28.59004,41.12647],[28.58754,41.12824],[28.5813,41.12817],[28.57787,41.12634],[28.57677,41.12396],[28.57046,41.1178],[28.56868,41.11798],[28.56529,41.11476],[28.56245,41.11556],[28.55933,41.10409],[28.55351,41.09338],[28.54655,41.09308],[28.53746,41.10157],[28.52973,41.10438],[28.52805,41.10574],[28.52137,41.10747],[28.51435,41.10519],[28.50809,41.10268],[28.51164,41.09633],[28.51522,41.08625],[28.51635,41.08434],[28.52579,41.07188],[28.52099,41.06899],[28.51664,41.07063],[28.51536,41.06775],[28.51066,41.06706],[28.50731,41.06519],[28.50254,41.05947],[28.49482,41.05729],[28.48551,41.05707],[28.48405,41.05584],[28.4805,41.05715],[28.47416,41.06468],[28.47283,41.0674],[28.47038,41.06846],[28.46732,41.06779],[28.45204,41.0705],[28.44855,41.07381],[28.444,41.07638],[28.4381,41.07737],[28.43272,41.07902],[28.42982,41.07721],[28.42479,41.07661],[28.42223,41.07565],[28.41712,41.0776],[28.41425,41.08126],[28.4122,41.08248],[28.40777,41.08322],[28.40202,41.08573],[28.39912,41.08365],[28.39767,41.0842],[28.39489,41.08157],[28.39338,41.07772],[28.39417,41.07614],[28.3922,41.07099],[28.39363,41.06491],[28.39346,41.05808],[28.39234,41.051],[28.39099,41.04809],[28.39367,41.04866],[28.40581,41.04569],[28.42924,41.03861],[28.44891,41.03155],[28.46577,41.02463],[28.47442,41.02019],[28.47539,41.01825],[28.48024,41.0162],[28.48257,41.01299],[28.48683,41.01153],[28.50077,41.00598],[28.50842,41.00213],[28.5104,40.99854],[28.51576,40.99728],[28.52443,40.99367],[28.53729,40.98788],[28.54117,40.98459],[28.54405,40.98662],[28.54502,40.99254],[28.54713,40.9995],[28.55093,41.00294],[28.55212,41.00736],[28.55412,41.00921],[28.56292,41.01372],[28.56305,41.01623],[28.5675,41.01816],[28.57489,41.01829],[28.5872,41.017],[28.59174,41.01575],[28.59589,41.01385],[28.59982,41.00856],[28.59758,41.00407],[28.5972,40.99701]]]},"properties":{"id":1275387,"name":"Büyükçekmece"}},{"type":"Feature","geometry":{"type":"Polygon","coordinates":[[[28.39338,41.07772],[28.39489,41.08157],[28.39767,41.0842],[28.39912,41.08365],[28.40202,41.08573],[28.40777,41.08322],[28.4122,41.08248],[28.41425,41.08126],[28.41712,41.0776],[28.42223,41.07565],[28.42479,41.07661],[28.42982,41.07721],[28.43272,41.07902],[28.4381,41.07737],[28.444,41.07638],[28.44855,41.07381],[28.45204,41.0705],[28.46732,41.06779],[28.47038,41.06846],[28.47283,41.0674],[28.47416,41.06468],[28.4805,41.05715],[28.48405,41.05584],[28.48551,41.05707],[28.49482,41.05729],[28.50254,41.05947],[28.50731,41.06519],[28.51066,41.06706],[28.51536,41.06775],[28.51664,41.07063],[28.52099,41.06899],[28.52579,41.07188],[28.51635,41.08434],[28.51522,41.08625],[28.51164,41.09633],[28.50809,41.10268],[28.51435,41.10519],[28.52137,41.10747],[28.52805,41.10574],[28.52973,41.10438],[28.53746,41.10157],[28.54655,41.09308],[28.55351,41.09338],[28.55933,41.10409],[28.56245,41.11556],[28.56255,41.11799],[28.56638,41.12206],[28.57397,41.12731],[28.57051,41.13694],[28.56779,41.1402],[28.57229,41.14544],[28.57589,41.14774],[28.57988,41.15181],[28.58193,41.15478],[28.58633,41.16392],[28.59132,41.16566],[28.59403,41.17215],[28.59426,41.18222],[28.5951,41.18503],[28.59508,41.19007],[28.59128,41.19702],[28.58846,41.20031],[28.58573,41.20507],[28.58572,41.21016],[28.58293,41.2137],[28.58211,41.21757],[28.58299,41.22255],[28.581,41.23024],[28.57911,41.23035],[28.57716,41.23282],[28.57402,41.23457],[28.57724,41.23715],[28.577,41.2403],[28.57533,41.24195],[28.5754,41.2458],[28.57666,41.24813],[28.57414,41.25306],[28.5738,41.25589],[28.57503,41.25766],[28.57257,41.25962],[28.55984,41.2619],[28.55574,41.26169],[28.55284,41.26019],[28.54925,41.26046],[28.54553,41.26518],[28.54477,41.27187],[28.54329,41.27651],[28.55171,41.27816],[28.55276,41.2836],[28.55187,41.28696],[28.55311,41.28991],[28.55564,41.29252],[28.55685,41.29643],[28.55612,41.30179],[28.55798,41.30602],[28.55727,41.30937],[28.57309,41.35362],[28.56531,41.36605],[28.53421,41.37113],[28.51967,41.38318],[28.49559,41.38769],[28.49139,41.39008],[28.48927,41.39435],[28.49066,41.40233],[28.49014,41.40552],[28.49196,41.40808],[28.46851,41.41831],[28.46522,41.41932],[28.44161,41.42824],[28.43444,41.4305],[28.42204,41.43544],[28.41228,41.43903],[28.40596,41.4419],[28.39062,41.44781],[28.38116,41.45167],[28.36551,41.45862],[28.36115,41.46018],[28.344,41.46742],[28.31393,41.47912],[28.30011,41.48541],[28.28581,41.49094],[28.27873,41.49448],[28.27253,41.49615],[28.26849,41.49999],[28.26206,41.50222],[28.2618,41.5048],[28.25996,41.50727],[28.25631,41.50752],[28.25198,41.51053],[28.24859,41.51066],[28.2471,41.51438],[28.23734,41.5169],[28.23592,41.51899],[28.23324,41.51977],[28.23132,41.52207],[28.23225,41.52362],[28.22738,41.52465],[28.22423,41.52312],[28.22048,41.52465],[28.21919,41.52824],[28.22162,41.5289],[28.21303,41.53394],[28.20778,41.53865],[28.20527,41.5398],[28.19906,41.54539],[28.19946,41.54845],[28.19557,41.54891],[28.19252,41.54819],[28.19301,41.55248],[28.18716,41.55345],[28.18567,41.55502],[28.18608,41.55757],[28.18827,41.55856],[28.18473,41.56099],[28.18279,41.56114],[28.1809,41.5635],[28.18126,41.56547],[28.18606,41.56764],[28.18235,41.56847],[28.18162,41.57113],[28.17507,41.57319],[28.17208,41.5729],[28.16596,41.57476],[28.16704,41.5777],[28.15819,41.57984],[28.15358,41.57931],[28.15088,41.58028],[28.14637,41.58329],[28.1372,41.5809],[28.13657,41.57878],[28.13295,41.57643],[28.13228,41.574],[28.12894,41.57318],[28.12294,41.56446],[28.11799,41.56259],[28.11899,41.56033],[28.12339,41.56015],[28.12463,41.55674],[28.12466,41.55239],[28.1209,41.55199],[28.11886,41.54969],[28.12255,41.54669],[28.1206,41.54417],[28.12134,41.54285],[28.11619,41.54024],[28.12128,41.53727],[28.12028,41.53525],[28.12079,41.5315],[28.1198,41.52945],[28.11414,41.52396],[28.11137,41.52242],[28.10838,41.51943],[28.10561,41.51811],[28.10462,41.51574],[28.10116,41.51597],[28.09738,41.51513],[28.09566,41.51205],[28.09191,41.50962],[28.08779,41.50874],[28.08352,41.50924],[28.07891,41.50896],[28.07548,41.50658],[28.07762,41.50332],[28.07526,41.50176],[28.07395,41.49838],[28.07095,41.49476],[28.07294,41.49295],[28.0786,41.49314],[28.08132,41.49106],[28.08535,41.49008],[28.08911,41.48602],[28.0904,41.48305],[28.09359,41.48006],[28.09964,41.47649],[28.1062,41.4737],[28.10645,41.46923],[28.10857,41.46826],[28.11201,41.46448],[28.11273,41.45963],[28.11189,41.45416],[28.11239,41.44915],[28.11364,41.44761],[28.11378,41.43887],[28.11262,41.43469],[28.11108,41.43191],[28.11124,41.42654],[28.11303,41.42247],[28.11616,41.41762],[28.11825,41.41621],[28.12121,41.41213],[28.12177,41.40968],[28.11824,41.40797],[28.11331,41.40706],[28.11013,41.40399],[28.10176,41.40411],[28.09891,41.39408],[28.09933,41.38841],[28.09483,41.3774],[28.09212,41.37502],[28.08936,41.36958],[28.08903,41.3555],[28.08787,41.35196],[28.08992,41.34748],[28.08661,41.33931],[28.08505,41.33811],[28.08244,41.33358],[28.08203,41.33054],[28.07988,41.32701],[28.0805,41.32485],[28.07809,41.31976],[28.07818,41.31191],[28.07713,41.30831],[28.07643,41.30216],[28.07709,41.29987],[28.07865,41.2972],[28.08176,41.29915],[28.08657,41.29767],[28.08849,41.29556],[28.09351,41.29709],[28.09365,41.29974],[28.10212,41.29774],[28.10718,41.29897],[28.11483,41.29785],[28.11708,41.29917],[28.11935,41.30282],[28.1215,41.30329],[28.12552,41.30732],[28.13277,41.31375],[28.13423,41.31716],[28.13817,41.31766],[28.13822,41.31987],[28.13307,41.32112],[28.13079,41.32397],[28.12796,41.33346],[28.12413,41.33452],[28.13183,41.34256],[28.13587,41.34929],[28.13631,41.35391],[28.13436,41.35641],[28.13363,41.36303],[28.13591,41.36075],[28.14062,41.35946],[28.14395,41.35782],[28.15356,41.35906],[28.15984,41.35861],[28.17533,41.35491],[28.19649,41.34774],[28.20494,41.34521],[28.20869,41.34153],[28.20971,41.33786],[28.21268,41.33797],[28.21321,41.34105],[28.21887,41.34627],[28.22217,41.34521],[28.22488,41.34316],[28.2332,41.34245],[28.23796,41.34415],[28.24576,41.3448],[28.24776,41.34367],[28.25233,41.34626],[28.26306,41.34719],[28.26664,41.35346],[28.27111,41.35583],[28.2755,41.35174],[28.27905,41.34961],[28.2814,41.34636],[28.27977,41.34256],[28.2767,41.33936],[28.2765,41.33728],[28.27421,41.33388],[28.26534,41.32442],[28.26719,41.31791],[28.27484,41.31261],[28.27973,41.29757],[28.29329,41.27324],[28.29652,41.27559],[28.30081,41.27625],[28.30263,41.27554],[28.30256,41.26927],[28.30544,41.26846],[28.30762,41.25948],[28.31028,41.25815],[28.31732,41.25286],[28.31884,41.24882],[28.31568,41.2466],[28.31986,41.24373],[28.32486,41.24255],[28.32907,41.23921],[28.3329,41.24062],[28.33445,41.23933],[28.33944,41.24181],[28.34429,41.24119],[28.3441,41.23956],[28.34712,41.23858],[28.34645,41.235],[28.3491,41.22997],[28.34965,41.22607],[28.3521,41.22198],[28.35786,41.21838],[28.35856,41.21633],[28.36086,41.2144],[28.36732,41.2122],[28.36701,41.20942],[28.37399,41.20848],[28.37381,41.20559],[28.37568,41.20514],[28.37671,41.2023],[28.373,41.19761],[28.37404,41.19452],[28.36948,41.19437],[28.36728,41.19291],[28.36847,41.1891],[28.37029,41.18946],[28.3733,41.18771],[28.37468,41.18507],[28.37231,41.18298],[28.36594,41.17374],[28.36936,41.17295],[28.37061,41.16982],[28.37035,41.16616],[28.37232,41.16308],[28.3762,41.16245],[28.37772,41.16377],[28.38398,41.16043],[28.38126,41.15511],[28.38292,41.15134],[28.38539,41.1494],[28.38199,41.14444],[28.38254,41.14207],[28.3858,41.13762],[28.38874,41.12994],[28.38152,41.12901],[28.38721,41.1246],[28.388,41.12014],[28.38728,41.11551],[28.38764,41.1126],[28.3901,41.10722],[28.39169,41.09854],[28.39545,41.09483],[28.39464,41.0926],[28.39098,41.08709],[28.39106,41.08348],[28.38965,41.08119],[28.39338,41.07772]]]},"properties":{"id":1275389,"name":"Çatalca"}},{"type":"Feature","geometry":{"type":"Polygon","coordinates":[[[29.45682,40.95438],[29.45447,40.95883],[29.45469,40.96784],[29.45638,40.97073],[29.45496,40.97362],[29.45544,40.97615],[29.45217,40.97887],[29.44636,40.97546],[29.44164,40.97474],[29.4311,40.97431],[29.41824,40.97287],[29.41339,40.96953],[29.4067,40.96009],[29.39998,40.96452],[29.39903,40.95916],[29.39588,40.95422],[29.3846,40.95135],[29.38226,40.94806],[29.37618,40.94822],[29.37325,40.94529],[29.37279,40.94221],[29.36472,40.93968],[29.35892,40.93726],[29.35567,40.93511],[29.35022,40.93389],[29.34253,40.93318],[29.33662,40.93109],[29.33858,40.92634],[29.33725,40.92385],[29.33667,40.91922],[29.33512,40.91608],[29.33582,40.91386],[29.33482,40.9118],[29.32794,40.90898],[29.32933,40.9016],[29.3266,40.89997],[29.32664,40.89822],[29.32915,40.89613],[29.32793,40.89032],[29.32539,40.88689],[29.31775,40.88164],[29.31361,40.87823],[29.30727,40.87555],[29.312,40.87434],[29.31265,40.87276],[29.31214,40.86856],[29.31492,40.8659],[29.31518,40.86375],[29.31212,40.86215],[29.30495,40.86124],[29.30391,40.86384],[29.29972,40.86408],[29.29764,40.86329],[29.29633,40.85924],[29.29474,40.85944],[29.2912,40.8555],[29.2877,40.85739],[29.28726,40.85443],[29.29155,40.84652],[29.2894,40.84297],[29.28579,40.84403],[29.28323,40.84152],[29.28425,40.83971],[29.27832,40.83392],[29.27327,40.83567],[29.27112,40.8373],[29.26972,40.84079],[29.26745,40.8423],[29.27039,40.84544],[29.27083,40.84921],[29.26776,40.84967],[29.2627,40.83996],[29.26831,40.83837],[29.26943,40.83649],[29.26675,40.83447],[29.27168,40.83181],[29.27676,40.83205],[29.27825,40.83122],[29.27967,40.8277],[29.27849,40.82445],[29.27604,40.82323],[29.27541,40.82043],[29.27088,40.8202],[29.26737,40.81506],[29.26416,40.81496],[29.26195,40.81644],[29.25789,40.81433],[29.25505,40.81475],[29.25879,40.80741],[29.25706,40.80511],[29.25867,40.80298],[29.2636,40.80501],[29.26405,40.80974],[29.26519,40.81147],[29.27007,40.81159],[29.27588,40.81398],[29.27924,40.81381],[29.28464,40.8124],[29.28753,40.8139],[29.2913,40.81275],[29.29394,40.81312],[29.29346,40.81522],[29.29764,40.81634],[29.30928,40.81141],[29.31456,40.81348],[29.3161,40.81608],[29.32013,40.8174],[29.32599,40.81695],[29.33114,40.81484],[29.33501,40.81143],[29.33912,40.8098],[29.34175,40.81227],[29.34668,40.82014],[29.34987,40.82449],[29.35666,40.821],[29.36229,40.81643],[29.36422,40.81898],[29.36417,40.82711],[29.36628,40.82948],[29.36634,40.83116],[29.36935,40.83348],[29.37114,40.83778],[29.36827,40.83998],[29.36577,40.84382],[29.36215,40.85079],[29.36609,40.85597],[29.36441,40.85909],[29.36666,40.85927],[29.36724,40.86254],[29.37119,40.86387],[29.37311,40.86669],[29.37931,40.87228],[29.39645,40.87635],[29.40126,40.87908],[29.40693,40.88007],[29.4137,40.8791],[29.41355,40.88649],[29.41543,40.88912],[29.41503,40.89537],[29.41662,40.89828],[29.42201,40.89922],[29.43453,40.89923],[29.44213,40.90048],[29.445,40.90242],[29.44686,40.90549],[29.44957,40.90614],[29.45343,40.90919],[29.45646,40.9126],[29.45407,40.91522],[29.45133,40.91612],[29.44783,40.91563],[29.44363,40.9178],[29.44174,40.92006],[29.44199,40.92268],[29.44117,40.92764],[29.44197,40.93361],[29.43827,40.93394],[29.43952,40.93649],[29.43708,40.9381],[29.43883,40.94114],[29.44307,40.94427],[29.45197,40.94751],[29.45499,40.95427],[29.45682,40.95438]]]},"properties":{"id":1276010,"name":"Tuzla"}},{"type":"Feature","geometry":{"type":"Polygon","coordinates":[[[29.28677,41.00239],[29.28632,40.99963],[29.28776,40.99683],[29.28724,40.99132],[29.29052,40.9725],[29.29358,40.96888],[29.29642,40.96754],[29.29983,40.96414],[29.30352,40.95844],[29.3108,40.96003],[29.31194,40.95558],[29.3097,40.95138],[29.30996,40.94929],[29.3023,40.9421],[29.29639,40.9385],[29.28025,40.93464],[29.27792,40.93263],[29.27357,40.93174],[29.25517,40.93209],[29.25087,40.92597],[29.24959,40.92229],[29.24482,40.92081],[29.24305,40.91957],[29.24359,40.91399],[29.24588,40.9116],[29.24553,40.90603],[29.24694,40.90436],[29.24672,40.90104],[29.24275,40.89828],[29.23822,40.89884],[29.2371,40.89625],[29.23229,40.89236],[29.22455,40.89738],[29.22313,40.89401],[29.22322,40.88962],[29.21875,40.89004],[29.21891,40.88473],[29.2179,40.88074],[29.21544,40.87815],[29.22151,40.87606],[29.22634,40.87144],[29.22851,40.87064],[29.23365,40.87023],[29.2357,40.87202],[29.23519,40.87469],[29.24015,40.8744],[29.2505,40.87027],[29.25629,40.86737],[29.25706,40.86552],[29.26506,40.85998],[29.25924,40.85706],[29.26064,40.85502],[29.26503,40.85391],[29.26773,40.85584],[29.27219,40.85728],[29.27437,40.85578],[29.28217,40.85504],[29.28408,40.85412],[29.28726,40.85443],[29.2877,40.85739],[29.2912,40.8555],[29.29474,40.85944],[29.29633,40.85924],[29.29764,40.86329],[29.29972,40.86408],[29.30391,40.86384],[29.30495,40.86124],[29.31212,40.86215],[29.31518,40.86375],[29.31492,40.8659],[29.31214,40.86856],[29.31265,40.87276],[29.312,40.87434],[29.30727,40.87555],[29.31361,40.87823],[29.31775,40.88164],[29.32539,40.88689],[29.32793,40.89032],[29.32915,40.89613],[29.32664,40.89822],[29.3266,40.89997],[29.32933,40.9016],[29.32794,40.90898],[29.33482,40.9118],[29.33582,40.91386],[29.33512,40.91608],[29.33667,40.91922],[29.33725,40.92385],[29.33858,40.92634],[29.33662,40.93109],[29.34253,40.93318],[29.35022,40.93389],[29.35567,40.93511],[29.35892,40.93726],[29.36472,40.93968],[29.37279,40.94221],[29.37325,40.94529],[29.37618,40.94822],[29.38226,40.94806],[29.3846,40.95135],[29.39588,40.95422],[29.39903,40.95916],[29.39998,40.96452],[29.4067,40.96009],[29.41339,40.96953],[29.41824,40.97287],[29.4311,40.97431],[29.44164,40.97474],[29.44636,40.97546],[29.45217,40.97887],[29.45544,40.97615],[29.45496,40.97362],[29.45638,40.97073],[29.45469,40.96784],[29.45447,40.95883],[29.45682,40.95438],[29.46035,40.95316],[29.46327,40.95096],[29.46996,40.95166],[29.46968,40.95331],[29.47364,40.95784],[29.47609,40.95963],[29.47903,40.95796],[29.47974,40.96059],[29.48247,40.96241],[29.48449,40.96504],[29.48473,40.96876],[29.48122,40.9696],[29.48417,40.9752],[29.48945,40.97685],[29.49565,40.98151],[29.50081,40.98677],[29.50476,40.98701],[29.50633,40.98921],[29.50543,40.99444],[29.50546,41.0002],[29.50258,41.00045],[29.49315,41.00817],[29.49367,41.01237],[29.49548,41.0147],[29.49968,41.01767],[29.49918,41.02005],[29.50081,41.02207],[29.5001,41.0264],[29.50185,41.03199],[29.49749,41.03578],[29.48947,41.03199],[29.48364,41.02998],[29.48364,41.02378],[29.48133,41.02042],[29.47591,41.01803],[29.47582,41.01639],[29.47105,41.01379],[29.46619,41.00902],[29.46279,41.00792],[29.45789,41.00435],[29.45339,41.00242],[29.44955,40.999],[29.44534,40.99833],[29.44254,40.99643],[29.43723,41.00151],[29.43444,41.00259],[29.4381,41.00921],[29.43579,41.01009],[29.43318,41.01442],[29.43067,41.01405],[29.42832,41.01537],[29.43071,41.01977],[29.42701,41.02134],[29.42432,41.02155],[29.41956,41.02337],[29.41377,41.02661],[29.41161,41.02666],[29.40468,41.02379],[29.39908,41.02453],[29.38431,41.02892],[29.37944,41.03329],[29.37591,41.03489],[29.37665,41.03868],[29.37532,41.04211],[29.37827,41.04896],[29.37613,41.05217],[29.3761,41.05723],[29.36988,41.0576],[29.36527,41.06056],[29.36016,41.05501],[29.35871,41.05158],[29.36097,41.04791],[29.36387,41.04653],[29.36541,41.04389],[29.3618,41.04159],[29.36032,41.03846],[29.35925,41.03577],[29.36091,41.03247],[29.36433,41.02906],[29.36437,41.02654],[29.36115,41.02575],[29.35558,41.02573],[29.34905,41.02176],[29.34492,41.01667],[29.34256,41.0159],[29.33587,41.01696],[29.32916,41.01711],[29.32222,41.01663],[29.31544,41.0171],[29.30932,41.01551],[29.30274,41.0154],[29.29843,41.01584],[29.29488,41.0151],[29.29417,41.01192],[29.29197,41.01059],[29.29106,41.00831],[29.28867,41.00752],[29.28677,41.00239]]]},"properties":{"id":1276011,"name":"Pendik"}},{"type":"Feature","geometry":{"type":"Polygon","coordinates":[[[29.28677,41.00239],[29.28334,41.00296],[29.27108,41.00318],[29.26303,41.00487],[29.25973,41.00319],[29.2595,40.99937],[29.25781,40.99454],[29.25453,40.99033],[29.25437,40.98527],[29.25175,40.97934],[29.25207,40.9766],[29.25014,40.97387],[29.24553,40.97038],[29.24472,40.96771],[29.24668,40.96393],[29.24764,40.95983],[29.24918,40.95797],[29.24937,40.95241],[29.2466,40.9513],[29.24989,40.94653],[29.25072,40.94046],[29.25189,40.93928],[29.25228,40.93481],[29.25517,40.93209],[29.27357,40.93174],[29.27792,40.93263],[29.28025,40.93464],[29.29639,40.9385],[29.3023,40.9421],[29.30996,40.94929],[29.3097,40.95138],[29.31194,40.95558],[29.3108,40.96003],[29.30352,40.95844],[29.29983,40.96414],[29.29642,40.96754],[29.29358,40.96888],[29.29052,40.9725],[29.28724,40.99132],[29.28776,40.99683],[29.28632,40.99963],[29.28677,41.00239]]]},"properties":{"id":1276012,"name":"Sultanbeyli"}},{"type":"Feature","geometry":{"type":"Polygon","coordinates":[[[29.2466,40.9513],[29.24251,40.94986],[29.23542,40.94989],[29.23012,40.94931],[29.22591,40.95296],[29.22113,40.95182],[29.2163,40.94604],[29.21359,40.94316],[29.20973,40.9377],[29.20801,40.9342],[29.20561,40.92557],[29.20378,40.9225],[29.19984,40.92132],[29.19836,40.92239],[29.19403,40.92117],[29.18353,40.92169],[29.17802,40.91993],[29.17164,40.91918],[29.16693,40.91784],[29.16345,40.91598],[29.15769,40.91389],[29.15845,40.91252],[29.15105,40.90968],[29.1494,40.91292],[29.14747,40.91412],[29.14285,40.91355],[29.13949,40.91163],[29.13958,40.90739],[29.13828,40.90667],[29.1425,40.9026],[29.14716,40.90062],[29.15038,40.90165],[29.1547,40.90066],[29.16696,40.8947],[29.17498,40.88965],[29.17741,40.88688],[29.18033,40.88549],[29.18365,40.88522],[29.18832,40.887],[29.19712,40.88366],[29.20204,40.88269],[29.20334,40.8833],[29.21544,40.87815],[29.2179,40.88074],[29.21891,40.88473],[29.21875,40.89004],[29.22322,40.88962],[29.22313,40.89401],[29.22455,40.89738],[29.23229,40.89236],[29.2371,40.89625],[29.23822,40.89884],[29.24275,40.89828],[29.24672,40.90104],[29.24694,40.90436],[29.24553,40.90603],[29.24588,40.9116],[29.24359,40.91399],[29.24305,40.91957],[29.24482,40.92081],[29.24959,40.92229],[29.25087,40.92597],[29.25517,40.93209],[29.25228,40.93481],[29.25189,40.93928],[29.25072,40.94046],[29.24989,40.94653],[29.2466,40.9513]]]},"properties":{"id":1276013,"name":"Kartal"}},{"type":"Feature","geometry":{"type":"Polygon","coordinates":[[[29.2466,40.9513],[29.24937,40.95241],[29.24918,40.95797],[29.24764,40.95983],[29.24668,40.96393],[29.24472,40.96771],[29.24553,40.97038],[29.25014,40.97387],[29.25207,40.9766],[29.25175,40.97934],[29.25437,40.98527],[29.25453,40.99033],[29.25781,40.99454],[29.2595,40.99937],[29.25973,41.00319],[29.26303,41.00487],[29.27108,41.00318],[29.28334,41.00296],[29.28677,41.00239],[29.28867,41.00752],[29.29106,41.00831],[29.29197,41.01059],[29.29417,41.01192],[29.29488,41.0151],[29.29843,41.01584],[29.30274,41.0154],[29.30932,41.01551],[29.31544,41.0171],[29.32222,41.01663],[29.32916,41.01711],[29.33587,41.01696],[29.34256,41.0159],[29.34492,41.01667],[29.34905,41.02176],[29.35558,41.02573],[29.36115,41.02575],[29.36437,41.02654],[29.36433,41.02906],[29.36091,41.03247],[29.35925,41.03577],[29.36032,41.03846],[29.35167,41.04109],[29.34858,41.04137],[29.34657,41.04795],[29.33997,41.04877],[29.32877,41.04891],[29.32647,41.05041],[29.32132,41.05083],[29.31361,41.04882],[29.31,41.04858],[29.3044,41.04948],[29.30142,41.04923],[29.30007,41.04784],[29.29027,41.05273],[29.28669,41.0517],[29.28446,41.05009],[29.28317,41.04668],[29.2815,41.04489],[29.2745,41.04235],[29.27227,41.03643],[29.26847,41.03223],[29.26421,41.02922],[29.25938,41.02786],[29.25007,41.02815],[29.25154,41.02543],[29.24284,41.02194],[29.23777,41.02069],[29.23685,41.0168],[29.22951,41.01633],[29.21373,41.01603],[29.20519,41.01303],[29.19982,41.0141],[29.19536,41.01369],[29.19074,41.01401],[29.19396,41.01332],[29.19466,41.0114],[29.18568,41.00904],[29.1863,41.0075],[29.18941,41.00594],[29.19029,41.0026],[29.19294,40.9967],[29.1913,40.99267],[29.19279,40.99247],[29.19262,40.98897],[29.19911,40.98492],[29.20351,40.98317],[29.19796,40.98125],[29.19915,40.97974],[29.1994,40.97435],[29.20259,40.97619],[29.20481,40.97616],[29.20829,40.97416],[29.21228,40.97593],[29.21405,40.97419],[29.21335,40.97171],[29.21073,40.96918],[29.20697,40.96093],[29.20999,40.95867],[29.21531,40.95152],[29.2163,40.94604],[29.22113,40.95182],[29.22591,40.95296],[29.23012,40.94931],[29.23542,40.94989],[29.24251,40.94986],[29.2466,40.9513]]]},"properties":{"id":1276014,"name":"Sancaktepe"}},{"type":"Feature","geometry":{"type":"Polygon","coordinates":[[[29.35911,41.12536],[29.35263,41.125],[29.3499,41.12657],[29.3508,41.12889],[29.34642,41.12961],[29.34141,41.12921],[29.33798,41.12702],[29.33498,41.12738],[29.33297,41.12631],[29.32783,41.12587],[29.32202,41.12783],[29.31972,41.12982],[29.31411,41.12792],[29.31207,41.12567],[29.31017,41.1264],[29.30206,41.1261],[29.2986,41.12866],[29.29499,41.12868],[29.2852,41.13254],[29.28404,41.1317],[29.2851,41.12839],[29.28185,41.12504],[29.28224,41.12303],[29.28094,41.12062],[29.27654,41.12175],[29.27395,41.11995],[29.26813,41.11874],[29.26276,41.11621],[29.26072,41.11726],[29.25674,41.11593],[29.25285,41.11603],[29.25167,41.11451],[29.2525,41.11161],[29.24896,41.11101],[29.25012,41.10787],[29.24863,41.10457],[29.24526,41.10294],[29.24245,41.10428],[29.23944,41.10228],[29.23535,41.10411],[29.23355,41.10948],[29.23221,41.10997],[29.2277,41.10659],[29.22196,41.10437],[29.22159,41.09962],[29.2224,41.09677],[29.21787,41.09434],[29.21635,41.09257],[29.21282,41.09099],[29.20874,41.0902],[29.2087,41.088],[29.20644,41.0856],[29.2061,41.08259],[29.20405,41.0793],[29.20457,41.07672],[29.20259,41.07378],[29.20306,41.07096],[29.20519,41.06822],[29.20541,41.06493],[29.20911,41.06126],[29.21042,41.05905],[29.20823,41.05666],[29.2039,41.05631],[29.19865,41.05369],[29.19334,41.05546],[29.1865,41.05514],[29.18316,41.05579],[29.17868,41.05433],[29.17052,41.05471],[29.16161,41.05273],[29.15888,41.05122],[29.15202,41.04935],[29.14841,41.0497],[29.14787,41.04775],[29.14288,41.04777],[29.14172,41.0438],[29.13906,41.04229],[29.13843,41.03995],[29.13993,41.03872],[29.13987,41.03494],[29.14221,41.03495],[29.14641,41.03675],[29.15412,41.03673],[29.16213,41.03464],[29.16539,41.0322],[29.17004,41.03076],[29.17711,41.02432],[29.17977,41.02132],[29.1824,41.0166],[29.18456,41.01468],[29.19074,41.01401],[29.19536,41.01369],[29.19982,41.0141],[29.20519,41.01303],[29.21373,41.01603],[29.22951,41.01633],[29.23685,41.0168],[29.23777,41.02069],[29.24284,41.02194],[29.25154,41.02543],[29.25007,41.02815],[29.25938,41.02786],[29.26421,41.02922],[29.26847,41.03223],[29.27227,41.03643],[29.2745,41.04235],[29.2815,41.04489],[29.28317,41.04668],[29.28446,41.05009],[29.28669,41.0517],[29.29027,41.05273],[29.30007,41.04784],[29.30142,41.04923],[29.3044,41.04948],[29.31,41.04858],[29.31361,41.04882],[29.32132,41.05083],[29.32647,41.05041],[29.32877,41.04891],[29.33997,41.04877],[29.34657,41.04795],[29.34858,41.04137],[29.35167,41.04109],[29.36032,41.03846],[29.3618,41.04159],[29.36541,41.04389],[29.36387,41.04653],[29.36097,41.04791],[29.35871,41.05158],[29.36016,41.05501],[29.36527,41.06056],[29.36988,41.0576],[29.3761,41.05723],[29.3798,41.06264],[29.38204,41.06428],[29.3824,41.06623],[29.385,41.06967],[29.38943,41.07088],[29.38785,41.07354],[29.39163,41.07514],[29.39479,41.07785],[29.39448,41.08139],[29.39963,41.08245],[29.39943,41.08591],[29.39346,41.08693],[29.39016,41.08964],[29.39514,41.09367],[29.40039,41.09426],[29.40203,41.09638],[29.40137,41.09999],[29.3984,41.10012],[29.39159,41.10293],[29.39054,41.10505],[29.38247,41.10895],[29.38046,41.11745],[29.3801,41.12106],[29.37282,41.12584],[29.3669,41.12268],[29.36175,41.12537],[29.35911,41.12536]]]},"properties":{"id":1276034,"name":"Çekmeköy"}},{"type":"Feature","geometry":{"type":"Polygon","coordinates":[[[29.19796,40.98125],[29.19302,40.9791],[29.18884,40.97816],[29.18437,40.97531],[29.17975,40.97534],[29.17653,40.97727],[29.17396,40.97605],[29.17232,40.9778],[29.16232,40.98077],[29.16098,40.97955],[29.15748,40.97911],[29.15388,40.97419],[29.1496,40.97245],[29.13666,40.97406],[29.13469,40.97317],[29.12623,40.9728],[29.12332,40.97061],[29.12263,40.968],[29.12005,40.96613],[29.11659,40.96138],[29.11123,40.95906],[29.10424,40.95655],[29.10115,40.95626],[29.09481,40.952],[29.09954,40.94824],[29.10307,40.94393],[29.10761,40.94217],[29.10688,40.93877],[29.11324,40.93156],[29.11368,40.9288],[29.12171,40.91957],[29.12364,40.91871],[29.12721,40.91945],[29.1328,40.91206],[29.13828,40.90667],[29.13958,40.90739],[29.13949,40.91163],[29.14285,40.91355],[29.14747,40.91412],[29.1494,40.91292],[29.15105,40.90968],[29.15845,40.91252],[29.15769,40.91389],[29.16345,40.91598],[29.16693,40.91784],[29.17164,40.91918],[29.17802,40.91993],[29.18353,40.92169],[29.19403,40.92117],[29.19836,40.92239],[29.19984,40.92132],[29.20378,40.9225],[29.20561,40.92557],[29.20801,40.9342],[29.20973,40.9377],[29.21359,40.94316],[29.2163,40.94604],[29.21531,40.95152],[29.20999,40.95867],[29.20697,40.96093],[29.21073,40.96918],[29.21335,40.97171],[29.21405,40.97419],[29.21228,40.97593],[29.20829,40.97416],[29.20481,40.97616],[29.20259,40.97619],[29.1994,40.97435],[29.19915,40.97974],[29.19796,40.98125]]]},"properties":{"id":1276407,"name":"Maltepe"}},{"type":"Feature","geometry":{"type":"Polygon","coordinates":[[[29.07335,40.99252],[29.05421,40.99969],[29.0472,41.0016],[29.04782,41.0055],[29.04586,41.00961],[29.04182,41.01002],[29.03711,41.0123],[29.03523,41.01139],[29.03282,41.00818],[29.02755,41.00431],[29.0278,41.00255],[29.02118,40.99841],[29.01765,41.00129],[29.01579,41.00025],[29.01907,40.99704],[29.02257,40.99593],[29.02408,40.99423],[29.02301,40.99212],[29.02036,40.9911],[29.01593,40.99193],[29.0202,40.98527],[29.01984,40.98127],[29.02221,40.97828],[29.02482,40.97973],[29.02772,40.97932],[29.03249,40.98092],[29.03367,40.98222],[29.03752,40.97939],[29.03964,40.97539],[29.03713,40.9743],[29.03832,40.97095],[29.0365,40.96962],[29.03376,40.97107],[29.03143,40.96771],[29.03447,40.96645],[29.03753,40.96885],[29.03969,40.96813],[29.04185,40.96564],[29.0444,40.96712],[29.04543,40.96957],[29.05266,40.96791],[29.05616,40.96428],[29.06217,40.96206],[29.06572,40.96296],[29.06882,40.96244],[29.07107,40.95851],[29.07448,40.95673],[29.07602,40.95709],[29.08107,40.95348],[29.0854,40.95478],[29.08751,40.95451],[29.09051,40.95134],[29.09481,40.952],[29.10115,40.95626],[29.10424,40.95655],[29.11123,40.95906],[29.10663,40.96333],[29.10354,40.96725],[29.09709,40.97869],[29.0926,40.9836],[29.08874,40.98628],[29.08431,40.9884],[29.07335,40.99252]]]},"properties":{"id":1276548,"name":"Kadıköy"}},{"type":"Feature","geometry":{"type":"Polygon","coordinates":[[[29.11123,40.95906],[29.11659,40.96138],[29.12005,40.96613],[29.12263,40.968],[29.12332,40.97061],[29.12623,40.9728],[29.13469,40.97317],[29.13666,40.97406],[29.1496,40.97245],[29.15388,40.97419],[29.15748,40.97911],[29.16098,40.97955],[29.16232,40.98077],[29.17232,40.9778],[29.17396,40.97605],[29.17653,40.97727],[29.17975,40.97534],[29.18437,40.97531],[29.18884,40.97816],[29.19302,40.9791],[29.19796,40.98125],[29.20351,40.98317],[29.19911,40.98492],[29.19262,40.98897],[29.18777,40.99026],[29.17961,40.99054],[29.17295,40.99192],[29.16509,40.99419],[29.16152,40.99457],[29.14842,40.99502],[29.1392,40.99669],[29.13238,40.997],[29.12063,40.99569],[29.1141,40.99636],[29.10713,40.99985],[29.10111,41.00463],[29.09573,41.00796],[29.08944,41.00948],[29.08346,41.00888],[29.07757,41.00668],[29.07264,41.00567],[29.07232,41.00252],[29.07403,40.99671],[29.07335,40.99252],[29.08431,40.9884],[29.08874,40.98628],[29.0926,40.9836],[29.09709,40.97869],[29.10354,40.96725],[29.10663,40.96333],[29.11123,40.95906]]]},"properties":{"id":1276672,"name":"Ataşehir"}},{"type":"Feature","geometry":{"type":"Polygon","coordinates":[[[29.0836,41.06374],[29.07956,41.06503],[29.07353,41.07055],[29.07085,41.07427],[29.06425,41.07789],[29.06369,41.07637],[29.05535,41.07324],[29.05714,41.06858],[29.05696,41.06642],[29.05242,41.0615],[29.05328,41.05746],[29.05164,41.05413],[29.05212,41.04824],[29.03925,41.04266],[29.03533,41.03995],[29.03187,41.03853],[29.02234,41.0322],[29.01754,41.02996],[29.01317,41.02615],[29.00963,41.02594],[29.00646,41.02253],[29.01057,41.01562],[29.01115,41.01299],[29.00918,41.009],[29.00671,41.00744],[29.00836,41.00486],[29.01244,41.00445],[29.01343,41.00255],[29.01156,41.00091],[29.01579,41.00025],[29.01765,41.00129],[29.02118,40.99841],[29.0278,41.00255],[29.02755,41.00431],[29.03282,41.00818],[29.03523,41.01139],[29.03711,41.0123],[29.04182,41.01002],[29.04586,41.00961],[29.04782,41.0055],[29.0472,41.0016],[29.05421,40.99969],[29.07335,40.99252],[29.07403,40.99671],[29.07232,41.00252],[29.07264,41.00567],[29.07757,41.00668],[29.08346,41.00888],[29.08944,41.00948],[29.08551,41.01815],[29.08323,41.02112],[29.08309,41.02413],[29.08035,41.02943],[29.08694,41.03175],[29.08799,41.03536],[29.09054,41.03757],[29.09169,41.04042],[29.08966,41.04366],[29.08834,41.0518],[29.08685,41.055],[29.08309,41.05625],[29.08545,41.06009],[29.0836,41.06374]]]},"properties":{"id":1276889,"name":"Üsküdar"}},{"type":"Feature","geometry":{"type":"Polygon","coordinates":[[[29.08944,41.00948],[29.09573,41.00796],[29.10111,41.00463],[29.10713,40.99985],[29.1141,40.99636],[29.12063,40.99569],[29.13238,40.997],[29.1392,40.99669],[29.14842,40.99502],[29.16152,40.99457],[29.16509,40.99419],[29.17295,40.99192],[29.17961,40.99054],[29.18777,40.99026],[29.19262,40.98897],[29.19279,40.99247],[29.1913,40.99267],[29.19294,40.9967],[29.19029,41.0026],[29.18941,41.00594],[29.1863,41.0075],[29.18568,41.00904],[29.19466,41.0114],[29.19396,41.01332],[29.19074,41.01401],[29.18456,41.01468],[29.1824,41.0166],[29.17977,41.02132],[29.17711,41.02432],[29.17004,41.03076],[29.16539,41.0322],[29.16213,41.03464],[29.15412,41.03673],[29.14641,41.03675],[29.14221,41.03495],[29.13987,41.03494],[29.13993,41.03872],[29.13843,41.03995],[29.13906,41.04229],[29.1376,41.04621],[29.13432,41.04875],[29.13479,41.05195],[29.13166,41.05218],[29.12623,41.04986],[29.1229,41.05172],[29.11982,41.05218],[29.11938,41.05367],[29.11356,41.05898],[29.10761,41.06122],[29.1,41.06034],[29.09644,41.0612],[29.09661,41.06435],[29.08988,41.06544],[29.0836,41.06374],[29.08545,41.06009],[29.08309,41.05625],[29.08685,41.055],[29.08834,41.0518],[29.08966,41.04366],[29.09169,41.04042],[29.09054,41.03757],[29.08799,41.03536],[29.08694,41.03175],[29.08035,41.02943],[29.08309,41.02413],[29.08323,41.02112],[29.08551,41.01815],[29.08944,41.00948]]]},"properties":{"id":1276890,"name":"Ümraniye"}},{"type":"Feature","geometry":{"type":"Polygon","coordinates":[[[29.33248,41.21663],[29.33033,41.21538],[29.32713,41.21702],[29.32316,41.21635],[29.31795,41.21731],[29.31485,41.21934],[29.30991,41.22094],[29.30479,41.2205],[29.30044,41.22176],[29.29346,41.22169],[29.2826,41.22465],[29.27779,41.22787],[29.27321,41.22767],[29.27072,41.22962],[29.26752,41.22985],[29.26543,41.23121],[29.25792,41.23047],[29.25739,41.2338],[29.2517,41.23411],[29.24868,41.23228],[29.24572,41.2319],[29.24405,41.229],[29.24137,41.22788],[29.23325,41.22962],[29.22876,41.22816],[29.225,41.22956],[29.2195,41.22895],[29.21725,41.23099],[29.21388,41.22998],[29.21685,41.22601],[29.21416,41.22348],[29.21145,41.22235],[29.20629,41.2215],[29.20057,41.22174],[29.19757,41.22032],[29.19212,41.22019],[29.17971,41.22136],[29.16986,41.22485],[29.16512,41.22433],[29.16327,41.22185],[29.16265,41.21794],[29.15756,41.21833],[29.15446,41.21936],[29.15061,41.21775],[29.15196,41.21433],[29.1477,41.2119],[29.14217,41.21273],[29.13763,41.21133],[29.13695,41.20991],[29.12973,41.2074],[29.13171,41.20538],[29.13104,41.20314],[29.12224,41.20171],[29.11809,41.19901],[29.12011,41.19696],[29.11923,41.19509],[29.11933,41.19047],[29.11775,41.18673],[29.11446,41.18494],[29.1082,41.18385],[29.10668,41.18074],[29.10317,41.18172],[29.10007,41.18068],[29.09416,41.18056],[29.08688,41.17844],[29.0884,41.17337],[29.08669,41.17005],[29.08137,41.16735],[29.07578,41.16671],[29.07368,41.16465],[29.07242,41.16119],[29.07622,41.15817],[29.07776,41.15603],[29.07752,41.15259],[29.0756,41.14877],[29.07256,41.14575],[29.07169,41.14232],[29.07898,41.13961],[29.08035,41.13685],[29.08346,41.1372],[29.08719,41.13633],[29.0917,41.13398],[29.0924,41.1311],[29.09699,41.12657],[29.09765,41.12214],[29.0966,41.11843],[29.09483,41.11691],[29.08777,41.11505],[29.08268,41.11011],[29.08131,41.10708],[29.07805,41.10769],[29.07359,41.10705],[29.06617,41.10274],[29.06437,41.09777],[29.06628,41.09158],[29.06571,41.08843],[29.06692,41.08511],[29.06624,41.0811],[29.06425,41.07789],[29.07085,41.07427],[29.07353,41.07055],[29.07956,41.06503],[29.0836,41.06374],[29.08988,41.06544],[29.09661,41.06435],[29.09644,41.0612],[29.1,41.06034],[29.10761,41.06122],[29.11356,41.05898],[29.11938,41.05367],[29.11982,41.05218],[29.1229,41.05172],[29.12623,41.04986],[29.13166,41.05218],[29.13479,41.05195],[29.13432,41.04875],[29.1376,41.04621],[29.13906,41.04229],[29.14172,41.0438],[29.14288,41.04777],[29.14787,41.04775],[29.14841,41.0497],[29.15202,41.04935],[29.15888,41.05122],[29.16161,41.05273],[29.17052,41.05471],[29.17868,41.05433],[29.18316,41.05579],[29.1865,41.05514],[29.19334,41.05546],[29.19865,41.05369],[29.2039,41.05631],[29.20823,41.05666],[29.21042,41.05905],[29.20911,41.06126],[29.20541,41.06493],[29.20519,41.06822],[29.20306,41.07096],[29.20259,41.07378],[29.20457,41.07672],[29.20405,41.0793],[29.2061,41.08259],[29.20644,41.0856],[29.2087,41.088],[29.20874,41.0902],[29.21282,41.09099],[29.21635,41.09257],[29.21787,41.09434],[29.2224,41.09677],[29.22159,41.09962],[29.22196,41.10437],[29.2277,41.10659],[29.23221,41.10997],[29.23355,41.10948],[29.23535,41.10411],[29.23944,41.10228],[29.24245,41.10428],[29.24526,41.10294],[29.24863,41.10457],[29.25012,41.10787],[29.24896,41.11101],[29.2525,41.11161],[29.25167,41.11451],[29.25285,41.11603],[29.25674,41.11593],[29.26072,41.11726],[29.26276,41.11621],[29.26813,41.11874],[29.27395,41.11995],[29.27654,41.12175],[29.28094,41.12062],[29.28224,41.12303],[29.28185,41.12504],[29.2851,41.12839],[29.28404,41.1317],[29.2852,41.13254],[29.29499,41.12868],[29.2986,41.12866],[29.30206,41.1261],[29.31017,41.1264],[29.31207,41.12567],[29.31411,41.12792],[29.31972,41.12982],[29.32202,41.12783],[29.32783,41.12587],[29.33297,41.12631],[29.33498,41.12738],[29.33798,41.12702],[29.34141,41.12921],[29.34642,41.12961],[29.3508,41.12889],[29.3499,41.12657],[29.35263,41.125],[29.35911,41.12536],[29.36301,41.13002],[29.3654,41.13433],[29.36405,41.14082],[29.35714,41.14326],[29.35374,41.14279],[29.35661,41.14696],[29.35683,41.14975],[29.35387,41.15226],[29.35078,41.15347],[29.34612,41.1518],[29.34508,41.15582],[29.3416,41.16013],[29.33881,41.15937],[29.33228,41.15911],[29.32928,41.15784],[29.32975,41.16121],[29.32818,41.16365],[29.32605,41.16942],[29.32417,41.16891],[29.32271,41.17293],[29.32271,41.17641],[29.32436,41.17893],[29.32326,41.1816],[29.32113,41.183],[29.32214,41.18729],[29.32235,41.19264],[29.32335,41.19541],[29.32605,41.19697],[29.33245,41.20361],[29.33283,41.20588],[29.32972,41.21121],[29.33228,41.21437],[29.33248,41.21663]]]},"properties":{"id":1276910,"name":"Beykoz"}},{"type":"Feature","geometry":{"type":"Polygon","coordinates":[[[28.94844,41.06443],[28.94736,41.06277],[28.94845,41.05717],[28.94771,41.05552],[28.94027,41.05254],[28.93901,41.04933],[28.94154,41.04549],[28.94678,41.04307],[28.95015,41.03923],[28.95241,41.03489],[28.95571,41.03383],[28.96014,41.03387],[28.96698,41.02952],[28.96607,41.02799],[28.96752,41.02446],[28.9699,41.02236],[28.97516,41.02155],[28.97787,41.02223],[28.98248,41.02529],[28.98856,41.02812],[28.99018,41.03079],[28.99394,41.03346],[28.99578,41.03677],[28.99288,41.03919],[28.98081,41.04216],[28.97564,41.04554],[28.97384,41.04602],[28.97092,41.04467],[28.96807,41.04557],[28.96801,41.0477],[28.96271,41.05092],[28.96171,41.05337],[28.95554,41.05367],[28.95507,41.05852],[28.95084,41.0616],[28.94844,41.06443]]]},"properties":{"id":1765892,"name":"Beyoğlu"}},{"type":"Feature","geometry":{"type":"Polygon","coordinates":[[[29.00522,41.09371],[29.00679,41.08719],[29.01388,41.07723],[29.01589,41.07183],[29.01169,41.06274],[29.00762,41.06631],[29.0032,41.0666],[29.0014,41.0617],[29.00105,41.05774],[28.99871,41.05553],[29.00105,41.05026],[28.99837,41.04991],[28.99595,41.04561],[28.99555,41.04307],[28.99323,41.04226],[28.99288,41.03919],[28.99578,41.03677],[28.99678,41.0375],[29.01006,41.0413],[29.01691,41.0435],[29.01968,41.04521],[29.02489,41.04726],[29.0328,41.04975],[29.03597,41.05606],[29.03659,41.0595],[29.04052,41.06262],[29.04227,41.06676],[29.04638,41.06789],[29.04407,41.075],[29.04498,41.07819],[29.04652,41.07907],[29.05219,41.07995],[29.05478,41.08109],[29.05295,41.08424],[29.0485,41.08401],[29.04674,41.08526],[29.04187,41.08479],[29.04262,41.08788],[29.04203,41.09082],[29.02955,41.09251],[29.0233,41.09419],[29.02853,41.0963],[29.03305,41.09918],[29.03112,41.09994],[29.02543,41.09866],[29.01867,41.10132],[29.01445,41.10667],[29.01237,41.1052],[29.0087,41.10027],[29.00522,41.09371]]]},"properties":{"id":1765893,"name":"Beşiktaş"}},{"type":"Feature","geometry":{"type":"Polygon","coordinates":[[[28.94844,41.06443],[28.95084,41.0616],[28.95507,41.05852],[28.95554,41.05367],[28.96171,41.05337],[28.96311,41.05612],[28.96938,41.06386],[28.97844,41.06743],[28.97988,41.07083],[28.98271,41.06911],[28.98895,41.07266],[28.98957,41.07538],[28.99194,41.07677],[28.99841,41.07595],[29.00088,41.0747],[29.00712,41.07592],[29.00771,41.07881],[29.00523,41.08444],[29.00676,41.08641],[29.00456,41.09338],[29.00398,41.09892],[29.00116,41.10087],[28.99488,41.0994],[28.99092,41.09973],[28.98553,41.09886],[28.98399,41.10398],[28.97907,41.10274],[28.9712,41.1027],[28.96963,41.1021],[28.96394,41.10442],[28.96118,41.10468],[28.96015,41.10671],[28.95387,41.10486],[28.95395,41.1008],[28.95728,41.09981],[28.95997,41.09693],[28.96697,41.09222],[28.96802,41.09048],[28.96807,41.08611],[28.96467,41.08589],[28.9629,41.08327],[28.96362,41.08034],[28.95714,41.07437],[28.9554,41.06813],[28.9513,41.06518],[28.94808,41.06472],[28.94844,41.06443]]]},"properties":{"id":1765894,"name":"Kâğıthane"}},{"type":"Feature","geometry":{"type":"Polygon","coordinates":[[[29.05478,41.08109],[29.05684,41.08295],[29.05729,41.08643],[29.05686,41.09122],[29.05401,41.09485],[29.05353,41.09893],[29.05675,41.10381],[29.05936,41.10932],[29.0574,41.11492],[29.06132,41.11314],[29.0641,41.11616],[29.06979,41.11965],[29.0719,41.12341],[29.07017,41.12736],[29.06385,41.13078],[29.0625,41.13414],[29.06082,41.13579],[29.05451,41.13831],[29.05797,41.13966],[29.05569,41.14374],[29.05042,41.14802],[29.04585,41.14894],[29.04142,41.15292],[29.03697,41.15466],[29.03658,41.15697],[29.03898,41.15833],[29.04672,41.16106],[29.05177,41.16476],[29.05743,41.16625],[29.05861,41.1693],[29.06167,41.17119],[29.0678,41.17251],[29.07271,41.17502],[29.07387,41.17727],[29.07385,41.18087],[29.07722,41.18553],[29.08336,41.18986],[29.09143,41.20036],[29.09772,41.20356],[29.10017,41.20607],[29.10304,41.20518],[29.1067,41.20564],[29.1052,41.2075],[29.1104,41.21208],[29.10606,41.21848],[29.10674,41.22173],[29.10955,41.22339],[29.10852,41.22482],[29.11331,41.22892],[29.1121,41.23137],[29.11333,41.23407],[29.10954,41.2352],[29.10973,41.23844],[29.10293,41.24132],[29.09911,41.24106],[29.09538,41.24492],[29.0929,41.24524],[29.08979,41.24785],[29.08763,41.24645],[29.0848,41.24708],[29.08324,41.24922],[29.07904,41.25013],[29.0802,41.25171],[29.07799,41.2539],[29.07253,41.24793],[29.07104,41.24846],[29.07218,41.25167],[29.0664,41.25262],[29.06573,41.25095],[29.06194,41.25213],[29.06043,41.25523],[29.05613,41.25469],[29.05021,41.25588],[29.0491,41.25698],[29.04294,41.25362],[29.04125,41.25556],[29.03897,41.25388],[29.03724,41.25034],[29.03381,41.24933],[29.03314,41.24617],[29.02955,41.24548],[29.0222,41.24498],[29.00984,41.24598],[28.9987,41.24768],[28.98542,41.2509],[28.98352,41.25197],[28.97842,41.25309],[28.97464,41.2525],[28.96517,41.25503],[28.96288,41.25844],[28.95657,41.26023],[28.95432,41.26218],[28.94929,41.26178],[28.94848,41.25879],[28.94671,41.25708],[28.94325,41.25632],[28.9403,41.25119],[28.94073,41.24841],[28.93668,41.24243],[28.93572,41.2372],[28.93257,41.23198],[28.93516,41.22959],[28.93491,41.22496],[28.9371,41.2223],[28.94174,41.22148],[28.94704,41.22192],[28.95385,41.21928],[28.9534,41.21465],[28.95108,41.20994],[28.94787,41.20507],[28.94804,41.19922],[28.9502,41.19528],[28.95406,41.19364],[28.95371,41.17879],[28.95201,41.16047],[28.95785,41.16042],[28.95704,41.158],[28.95931,41.15669],[28.96714,41.15761],[28.9714,41.15748],[28.97338,41.15589],[28.97559,41.15206],[28.97632,41.14721],[28.97414,41.14436],[28.96936,41.14035],[28.96788,41.13671],[28.96411,41.1345],[28.96506,41.1315],[28.95989,41.1274],[28.96097,41.12096],[28.95982,41.11407],[28.96212,41.11105],[28.96015,41.10671],[28.96118,41.10468],[28.96394,41.10442],[28.96963,41.1021],[28.9712,41.1027],[28.97907,41.10274],[28.98399,41.10398],[28.98553,41.09886],[28.99092,41.09973],[28.99488,41.0994],[29.00116,41.10087],[29.00398,41.09892],[29.00456,41.09338],[29.00522,41.09371],[29.0087,41.10027],[29.01237,41.1052],[29.01445,41.10667],[29.01867,41.10132],[29.02543,41.09866],[29.03112,41.09994],[29.03305,41.09918],[29.02853,41.0963],[29.0233,41.09419],[29.02955,41.09251],[29.04203,41.09082],[29.04262,41.08788],[29.04187,41.08479],[29.04674,41.08526],[29.0485,41.08401],[29.05295,41.08424],[29.05478,41.08109]]]},"properties":{"id":1765895,"name":"Sarıyer"}},{"type":"Feature","geometry":{"type":"Polygon","coordinates":[[[29.00456,41.09338],[29.00676,41.08641],[29.00523,41.08444],[29.00771,41.07881],[29.00712,41.07592],[29.00088,41.0747],[28.99841,41.07595],[28.99194,41.07677],[28.98957,41.07538],[28.98895,41.07266],[28.98271,41.06911],[28.97988,41.07083],[28.97844,41.06743],[28.96938,41.06386],[28.96311,41.05612],[28.96171,41.05337],[28.96271,41.05092],[28.96801,41.0477],[28.96807,41.04557],[28.97092,41.04467],[28.97384,41.04602],[28.97564,41.04554],[28.98081,41.04216],[28.99288,41.03919],[28.99323,41.04226],[28.99555,41.04307],[28.99595,41.04561],[28.99837,41.04991],[29.00105,41.05026],[28.99871,41.05553],[29.00105,41.05774],[29.0014,41.0617],[29.0032,41.0666],[29.00762,41.06631],[29.01169,41.06274],[29.01589,41.07183],[29.01388,41.07723],[29.00679,41.08719],[29.00522,41.09371],[29.00456,41.09338]]]},"properties":{"id":1765896,"name":"Şişli"}},{"type":"Feature","geometry":{"type":"Polygon","coordinates":[[[28.6396,41.09811],[28.64308,41.10358],[28.64567,41.10148],[28.64804,41.10148],[28.6527,41.09975],[28.65611,41.10014],[28.65737,41.09874],[28.66151,41.10164],[28.66351,41.10382],[28.66825,41.10683],[28.67806,41.11024],[28.67375,41.11183],[28.67387,41.11347],[28.6818,41.12228],[28.68372,41.12368],[28.68933,41.12538],[28.71675,41.11175],[28.72172,41.11183],[28.72716,41.11436],[28.73352,41.12534],[28.73387,41.13101],[28.73514,41.13589],[28.73803,41.13612],[28.73809,41.13395],[28.74031,41.1328],[28.747,41.13406],[28.75018,41.1317],[28.75462,41.13126],[28.75887,41.13245],[28.76367,41.13687],[28.77187,41.13988],[28.77937,41.1477],[28.78146,41.14937],[28.78983,41.14876],[28.79308,41.14637],[28.79928,41.14288],[28.80731,41.13752],[28.81162,41.13619],[28.81519,41.13633],[28.81515,41.14118],[28.81725,41.14295],[28.81635,41.1529],[28.81556,41.15566],[28.81622,41.16],[28.81387,41.16349],[28.8143,41.16646],[28.81423,41.17557],[28.81955,41.17516],[28.81976,41.17898],[28.82144,41.18252],[28.81964,41.18351],[28.81788,41.1868],[28.8193,41.19224],[28.81819,41.19416],[28.81915,41.19664],[28.81605,41.20105],[28.81924,41.203],[28.82079,41.20724],[28.81842,41.21022],[28.81606,41.21075],[28.81467,41.21312],[28.81084,41.21614],[28.81065,41.2185],[28.80563,41.22141],[28.79997,41.22164],[28.79653,41.2231],[28.79602,41.22583],[28.79779,41.22731],[28.79712,41.22968],[28.79453,41.2332],[28.7889,41.23673],[28.78831,41.24054],[28.7868,41.2432],[28.78762,41.24758],[28.78408,41.25105],[28.78076,41.25635],[28.77908,41.25779],[28.77482,41.25839],[28.7731,41.26137],[28.77008,41.27032],[28.7763,41.27018],[28.77772,41.27285],[28.77749,41.2761],[28.78128,41.27962],[28.78181,41.28456],[28.78347,41.28781],[28.78293,41.28941],[28.78513,41.29533],[28.78471,41.29804],[28.78655,41.3041],[28.78886,41.30611],[28.78078,41.30865],[28.78042,41.31146],[28.78186,41.31324],[28.7754,41.31658],[28.7713,41.32107],[28.76805,41.32316],[28.76018,41.32427],[28.7545,41.32738],[28.75028,41.32788],[28.74666,41.32671],[28.74145,41.326],[28.7341,41.32723],[28.73065,41.32585],[28.72661,41.32658],[28.71535,41.33009],[28.70892,41.33239],[28.7052,41.33429],[28.69767,41.33677],[28.68589,41.3416],[28.68394,41.34329],[28.68446,41.34787],[28.67993,41.34806],[28.67894,41.34444],[28.67673,41.34308],[28.67365,41.34284],[28.66906,41.34363],[28.65786,41.34785],[28.6455,41.34912],[28.64071,41.34993],[28.63076,41.35279],[28.62072,41.35646],[28.60787,41.36183],[28.58402,41.37146],[28.57619,41.3749],[28.56788,41.38005],[28.56456,41.3812],[28.56326,41.38281],[28.55931,41.38399],[28.5548,41.38617],[28.53847,41.38988],[28.53146,41.39252],[28.52532,41.39552],[28.51497,41.39896],[28.50469,41.40276],[28.49196,41.40808],[28.49014,41.40552],[28.49066,41.40233],[28.48927,41.39435],[28.49139,41.39008],[28.49559,41.38769],[28.51967,41.38318],[28.53421,41.37113],[28.56531,41.36605],[28.57309,41.35362],[28.55727,41.30937],[28.55798,41.30602],[28.55612,41.30179],[28.55685,41.29643],[28.55564,41.29252],[28.55311,41.28991],[28.55187,41.28696],[28.55276,41.2836],[28.55171,41.27816],[28.54329,41.27651],[28.54477,41.27187],[28.54553,41.26518],[28.54925,41.26046],[28.55284,41.26019],[28.55574,41.26169],[28.55984,41.2619],[28.57257,41.25962],[28.57503,41.25766],[28.5738,41.25589],[28.57414,41.25306],[28.57666,41.24813],[28.5754,41.2458],[28.57533,41.24195],[28.577,41.2403],[28.57724,41.23715],[28.57402,41.23457],[28.57716,41.23282],[28.57911,41.23035],[28.581,41.23024],[28.58299,41.22255],[28.58211,41.21757],[28.58293,41.2137],[28.58572,41.21016],[28.58573,41.20507],[28.58846,41.20031],[28.59128,41.19702],[28.59508,41.19007],[28.5951,41.18503],[28.59426,41.18222],[28.59403,41.17215],[28.59132,41.16566],[28.58633,41.16392],[28.58193,41.15478],[28.57988,41.15181],[28.57589,41.14774],[28.57229,41.14544],[28.56779,41.1402],[28.57051,41.13694],[28.57397,41.12731],[28.56638,41.12206],[28.56255,41.11799],[28.56245,41.11556],[28.56529,41.11476],[28.56868,41.11798],[28.57046,41.1178],[28.57677,41.12396],[28.57787,41.12634],[28.5813,41.12817],[28.58754,41.12824],[28.59004,41.12647],[28.59325,41.12872],[28.59511,41.12431],[28.59456,41.12286],[28.6034,41.11898],[28.60246,41.11603],[28.6038,41.11264],[28.60716,41.11211],[28.60849,41.11588],[28.61274,41.11939],[28.61571,41.114],[28.62019,41.10896],[28.62522,41.09966],[28.628,41.09778],[28.63402,41.08863],[28.63598,41.09494],[28.63924,41.09603],[28.6396,41.09811]]]},"properties":{"id":1766093,"name":"Arnavutköy"}},{"type":"Feature","geometry":{"type":"Polygon","coordinates":[[[28.74464,41.06209],[28.74285,41.06368],[28.73588,41.06223],[28.73196,41.06412],[28.73168,41.06575],[28.72888,41.06702],[28.72652,41.07113],[28.72315,41.07355],[28.71374,41.08256],[28.71039,41.08413],[28.70873,41.08637],[28.7061,41.08768],[28.70619,41.09032],[28.69779,41.10115],[28.69144,41.10519],[28.69273,41.09849],[28.69098,41.09246],[28.69386,41.08217],[28.69711,41.07693],[28.69847,41.07613],[28.70006,41.07178],[28.70032,41.06591],[28.69932,41.06451],[28.70107,41.05995],[28.70023,41.0591],[28.69156,41.05785],[28.68226,41.05499],[28.68341,41.05321],[28.68975,41.04741],[28.69062,41.04307],[28.69704,41.04141],[28.69178,41.03663],[28.6906,41.03633],[28.69107,41.03175],[28.69635,41.03142],[28.69722,41.02925],[28.70186,41.02876],[28.70146,41.02193],[28.70023,41.01551],[28.69675,41.01245],[28.7019,41.00941],[28.69979,41.00602],[28.69882,41.00027],[28.69302,40.9997],[28.68773,41.00229],[28.68431,41.00114],[28.68439,40.99898],[28.68761,40.99132],[28.6898,40.9884],[28.69444,40.98602],[28.70006,40.97921],[28.6987,40.97616],[28.69954,40.97374],[28.71129,40.97282],[28.71937,40.97076],[28.71983,40.96931],[28.72504,40.96894],[28.72724,40.9715],[28.73285,40.97168],[28.74119,40.97026],[28.74389,40.97401],[28.74854,40.97624],[28.75234,40.97976],[28.75677,40.97998],[28.7566,40.98315],[28.7452,41.02525],[28.73979,41.04457],[28.74057,41.05251],[28.74217,41.05686],[28.74527,41.05912],[28.74464,41.06209]]]},"properties":{"id":1766094,"name":"Avcılar"}},{"type":"Feature","geometry":{"type":"Polygon","coordinates":[[[28.81096,41.02717],[28.80839,41.02795],[28.80853,41.02495],[28.80642,41.02039],[28.80668,41.01536],[28.80824,41.01506],[28.80941,41.00742],[28.81351,40.99931],[28.81621,40.99544],[28.81888,40.99353],[28.82171,40.9931],[28.84397,40.9918],[28.84889,40.99166],[28.85587,40.99278],[28.87088,40.99744],[28.88576,41.0017],[28.88155,41.00626],[28.88028,41.01456],[28.87808,41.01433],[28.87712,41.01172],[28.87406,41.00766],[28.87059,41.00627],[28.86815,41.0095],[28.86149,41.01571],[28.86015,41.01756],[28.85459,41.02112],[28.84846,41.02143],[28.84757,41.02415],[28.84433,41.0214],[28.84149,41.02142],[28.83799,41.02367],[28.82819,41.02212],[28.8271,41.02033],[28.82286,41.01978],[28.81539,41.02342],[28.81096,41.02717]]]},"properties":{"id":1766095,"name":"Bahçelievler"}},{"type":"Feature","geometry":{"type":"Polygon","coordinates":[[[28.77519,40.97736],[28.77955,40.97442],[28.78619,40.97188],[28.79391,40.968],[28.79862,40.96377],[28.80359,40.9621],[28.80916,40.95829],[28.81691,40.95532],[28.82215,40.95524],[28.82266,40.95698],[28.82628,40.95709],[28.83025,40.95479],[28.83933,40.95833],[28.84323,40.96296],[28.84576,40.96683],[28.84521,40.96875],[28.85225,40.97448],[28.86182,40.97417],[28.86586,40.97356],[28.8662,40.96951],[28.87277,40.96984],[28.87625,40.97257],[28.87682,40.97421],[28.87964,40.9745],[28.88322,40.97676],[28.88551,40.97716],[28.89103,40.98003],[28.88995,40.98194],[28.89097,40.9837],[28.89236,40.99264],[28.89421,40.99557],[28.8919,40.99832],[28.89315,41.0026],[28.89595,41.00669],[28.89049,41.0032],[28.88576,41.0017],[28.87088,40.99744],[28.85587,40.99278],[28.84889,40.99166],[28.84397,40.9918],[28.82171,40.9931],[28.81888,40.99353],[28.81521,40.99504],[28.81157,40.99887],[28.8086,41.00018],[28.80311,41.00051],[28.80044,40.9997],[28.79724,40.99728],[28.79842,40.98902],[28.79455,40.98812],[28.79239,40.98918],[28.7885,40.98664],[28.77957,40.98443],[28.777,40.98601],[28.77529,40.98404],[28.77519,40.97736]]]},"properties":{"id":1766096,"name":"Bakırköy"}},{"type":"Feature","geometry":{"type":"Polygon","coordinates":[[[28.87892,41.07719],[28.87845,41.07103],[28.8847,41.06225],[28.88574,41.05946],[28.88583,41.0535],[28.88481,41.04398],[28.88912,41.03761],[28.89477,41.03562],[28.89867,41.02966],[28.89912,41.02768],[28.90262,41.02922],[28.90838,41.03056],[28.91221,41.0323],[28.91488,41.03078],[28.92177,41.02434],[28.92401,41.02869],[28.9211,41.0313],[28.91913,41.03598],[28.91662,41.03937],[28.91576,41.04283],[28.9182,41.04238],[28.91462,41.04785],[28.91204,41.04958],[28.91097,41.05158],[28.90944,41.05549],[28.90286,41.06032],[28.90034,41.0651],[28.89441,41.06937],[28.87892,41.07719]]]},"properties":{"id":1766097,"name":"Bayrampaşa"}},{"type":"Feature","geometry":{"type":"Polygon","coordinates":[[[28.81163,41.06129],[28.80814,41.04884],[28.80839,41.04375],[28.80998,41.03989],[28.81084,41.03566],[28.81096,41.02717],[28.81539,41.02342],[28.82286,41.01978],[28.8271,41.02033],[28.82819,41.02212],[28.83799,41.02367],[28.84149,41.02142],[28.84433,41.0214],[28.84757,41.02415],[28.84846,41.02143],[28.85459,41.02112],[28.86015,41.01756],[28.86308,41.01905],[28.86256,41.02134],[28.85948,41.02557],[28.85909,41.02873],[28.86309,41.02981],[28.86917,41.02909],[28.87269,41.02795],[28.87122,41.03845],[28.8688,41.0385],[28.86111,41.04027],[28.85978,41.04477],[28.85995,41.04809],[28.85538,41.05626],[28.85493,41.06225],[28.85654,41.06618],[28.86023,41.07122],[28.85407,41.07224],[28.84726,41.06624],[28.84475,41.06519],[28.84149,41.06525],[28.8338,41.06889],[28.82367,41.06995],[28.81978,41.07075],[28.81408,41.06998],[28.81378,41.06518],[28.81163,41.06129]]]},"properties":{"id":1766098,"name":"Bağcılar"}},{"type":"Feature","geometry":{"type":"Polygon","coordinates":[[[28.74464,41.06209],[28.75228,41.06102],[28.75791,41.06118],[28.76685,41.06243],[28.77755,41.06231],[28.7904,41.06408],[28.79695,41.06361],[28.80507,41.06162],[28.81163,41.06129],[28.81378,41.06518],[28.81408,41.06998],[28.81978,41.07075],[28.82367,41.06995],[28.8338,41.06889],[28.83733,41.07231],[28.83987,41.07823],[28.84331,41.08388],[28.84508,41.09032],[28.84693,41.09519],[28.84904,41.09774],[28.85054,41.10158],[28.85015,41.10595],[28.84766,41.11113],[28.84558,41.11215],[28.84503,41.11484],[28.84576,41.11743],[28.84419,41.12005],[28.83532,41.12613],[28.82713,41.13117],[28.82385,41.13523],[28.8203,41.13636],[28.81519,41.13633],[28.81162,41.13619],[28.80731,41.13752],[28.79928,41.14288],[28.79308,41.14637],[28.78983,41.14876],[28.78146,41.14937],[28.77937,41.1477],[28.77187,41.13988],[28.76367,41.13687],[28.75887,41.13245],[28.75462,41.13126],[28.75018,41.1317],[28.747,41.13406],[28.74031,41.1328],[28.73809,41.13395],[28.73803,41.13612],[28.73514,41.13589],[28.73387,41.13101],[28.73352,41.12534],[28.72716,41.11436],[28.72172,41.11183],[28.71675,41.11175],[28.68933,41.12538],[28.68372,41.12368],[28.6818,41.12228],[28.67387,41.11347],[28.67375,41.11183],[28.67806,41.11024],[28.66825,41.10683],[28.66351,41.10382],[28.66151,41.10164],[28.65737,41.09874],[28.65611,41.10014],[28.6527,41.09975],[28.64804,41.10148],[28.64567,41.10148],[28.64308,41.10358],[28.6396,41.09811],[28.64441,41.09518],[28.6459,41.09169],[28.65145,41.08634],[28.65306,41.08003],[28.65507,41.07636],[28.66651,41.06894],[28.67249,41.06465],[28.67517,41.06378],[28.68268,41.06254],[28.68604,41.06139],[28.69156,41.05785],[28.70023,41.0591],[28.70107,41.05995],[28.69932,41.06451],[28.70032,41.06591],[28.70006,41.07178],[28.69847,41.07613],[28.69711,41.07693],[28.69386,41.08217],[28.69098,41.09246],[28.69273,41.09849],[28.69144,41.10519],[28.69779,41.10115],[28.70619,41.09032],[28.7061,41.08768],[28.70873,41.08637],[28.71039,41.08413],[28.71374,41.08256],[28.72315,41.07355],[28.72652,41.07113],[28.72888,41.06702],[28.73168,41.06575],[28.73196,41.06412],[28.73588,41.06223],[28.74285,41.06368],[28.74464,41.06209]]]},"properties":{"id":1766099,"name":"Başakşehir"}},{"type":"Feature","geometry":{"type":"Polygon","coordinates":[[[28.63322,41.01858],[28.63177,41.01641],[28.6264,41.01669],[28.62593,41.00977],[28.62018,41.00412],[28.61765,40.9994],[28.61478,40.99632],[28.61409,40.99292],[28.61102,40.99195],[28.60482,40.99755],[28.60264,40.99637],[28.5972,40.99701],[28.59723,40.99237],[28.59612,40.98839],[28.5985,40.98178],[28.59818,40.97949],[28.59485,40.97357],[28.59813,40.97067],[28.59815,40.96662],[28.60374,40.96426],[28.60646,40.96533],[28.60909,40.96394],[28.61547,40.96182],[28.62075,40.96072],[28.62551,40.96168],[28.63082,40.96148],[28.63861,40.96235],[28.65285,40.96277],[28.65491,40.96225],[28.65708,40.96362],[28.66488,40.96266],[28.66917,40.95956],[28.66906,40.96322],[28.67239,40.96401],[28.67264,40.96133],[28.67468,40.96141],[28.67439,40.96459],[28.67614,40.96595],[28.68374,40.96681],[28.68475,40.96876],[28.69179,40.97224],[28.69525,40.97246],[28.69954,40.97374],[28.6987,40.97616],[28.70006,40.97921],[28.69444,40.98602],[28.6898,40.9884],[28.68761,40.99132],[28.68439,40.99898],[28.68431,41.00114],[28.68773,41.00229],[28.68279,41.00533],[28.67957,41.00579],[28.66772,41.00614],[28.66496,41.00664],[28.63322,41.01858]]]},"properties":{"id":1766100,"name":"Beylikdüzü"}},{"type":"Feature","geometry":{"type":"Polygon","coordinates":[[[28.8338,41.06889],[28.84149,41.06525],[28.84475,41.06519],[28.84726,41.06624],[28.85407,41.07224],[28.86023,41.07122],[28.85654,41.06618],[28.85493,41.06225],[28.85538,41.05626],[28.85995,41.04809],[28.85978,41.04477],[28.86111,41.04027],[28.8688,41.0385],[28.87122,41.03845],[28.87443,41.0368],[28.87649,41.03185],[28.88546,41.034],[28.89071,41.02947],[28.88705,41.02514],[28.88571,41.02201],[28.88733,41.02077],[28.88675,41.01741],[28.88979,41.0174],[28.89231,41.01875],[28.89851,41.01903],[28.90063,41.02069],[28.89938,41.0237],[28.89912,41.02768],[28.89867,41.02966],[28.89477,41.03562],[28.88912,41.03761],[28.88481,41.04398],[28.88583,41.0535],[28.88574,41.05946],[28.8847,41.06225],[28.87845,41.07103],[28.87892,41.07719],[28.87436,41.0816],[28.87096,41.08528],[28.86316,41.09077],[28.85528,41.10064],[28.85188,41.10629],[28.85015,41.10595],[28.85054,41.10158],[28.84904,41.09774],[28.84693,41.09519],[28.84508,41.09032],[28.84331,41.08388],[28.83987,41.07823],[28.83733,41.07231],[28.8338,41.06889]]]},"properties":{"id":1766101,"name":"Esenler"}},{"type":"Feature","geometry":{"type":"Polygon","coordinates":[[[28.69156,41.05785],[28.68604,41.06139],[28.68268,41.06254],[28.67517,41.06378],[28.67249,41.06465],[28.66651,41.06894],[28.65507,41.07636],[28.65306,41.08003],[28.65145,41.08634],[28.6459,41.09169],[28.64441,41.09518],[28.6396,41.09811],[28.63924,41.09603],[28.63598,41.09494],[28.63402,41.08863],[28.62588,41.07999],[28.62102,41.07012],[28.62086,41.06683],[28.62769,41.05421],[28.62812,41.05254],[28.62783,41.04466],[28.62635,41.04025],[28.62338,41.0346],[28.62582,41.02959],[28.62549,41.02503],[28.62666,41.02268],[28.63065,41.01962],[28.63322,41.01858],[28.66496,41.00664],[28.66772,41.00614],[28.67957,41.00579],[28.68279,41.00533],[28.68773,41.00229],[28.69302,40.9997],[28.69882,41.00027],[28.69979,41.00602],[28.7019,41.00941],[28.69675,41.01245],[28.70023,41.01551],[28.70146,41.02193],[28.70186,41.02876],[28.69722,41.02925],[28.69635,41.03142],[28.69107,41.03175],[28.6906,41.03633],[28.69178,41.03663],[28.69704,41.04141],[28.69062,41.04307],[28.68975,41.04741],[28.68341,41.05321],[28.68226,41.05499],[28.69156,41.05785]]]},"properties":{"id":1766102,"name":"Esenyurt"}},{"type":"Feature","geometry":{"type":"Polygon","coordinates":[[[28.96015,41.10671],[28.96212,41.11105],[28.95982,41.11407],[28.96097,41.12096],[28.95989,41.1274],[28.96506,41.1315],[28.96411,41.1345],[28.96788,41.13671],[28.96936,41.14035],[28.97414,41.14436],[28.97632,41.14721],[28.97559,41.15206],[28.97338,41.15589],[28.9714,41.15748],[28.96714,41.15761],[28.95931,41.15669],[28.95704,41.158],[28.95785,41.16042],[28.95201,41.16047],[28.95371,41.17879],[28.95406,41.19364],[28.9502,41.19528],[28.94804,41.19922],[28.94787,41.20507],[28.95108,41.20994],[28.9534,41.21465],[28.95385,41.21928],[28.94704,41.22192],[28.94174,41.22148],[28.9371,41.2223],[28.93491,41.22496],[28.93516,41.22959],[28.93257,41.23198],[28.93572,41.2372],[28.93668,41.24243],[28.94073,41.24841],[28.9403,41.25119],[28.94325,41.25632],[28.94671,41.25708],[28.94848,41.25879],[28.94929,41.26178],[28.94319,41.26248],[28.9422,41.26349],[28.93223,41.26734],[28.92951,41.26797],[28.92618,41.26996],[28.92162,41.27154],[28.91616,41.27192],[28.91546,41.27091],[28.91111,41.27018],[28.90935,41.27142],[28.9038,41.2728],[28.90043,41.27464],[28.89608,41.27416],[28.89132,41.27485],[28.88684,41.27417],[28.87437,41.27696],[28.86718,41.27925],[28.86258,41.27996],[28.85099,41.2836],[28.84494,41.28704],[28.83717,41.28686],[28.83013,41.29003],[28.82423,41.29189],[28.82099,41.29358],[28.8166,41.29792],[28.81035,41.30022],[28.80627,41.30276],[28.80106,41.30326],[28.79552,41.30265],[28.79103,41.30417],[28.78886,41.30611],[28.78655,41.3041],[28.78471,41.29804],[28.78513,41.29533],[28.78293,41.28941],[28.78347,41.28781],[28.78181,41.28456],[28.78128,41.27962],[28.77749,41.2761],[28.77772,41.27285],[28.7763,41.27018],[28.77008,41.27032],[28.7731,41.26137],[28.77482,41.25839],[28.77908,41.25779],[28.78076,41.25635],[28.78408,41.25105],[28.78762,41.24758],[28.7868,41.2432],[28.78831,41.24054],[28.7889,41.23673],[28.79453,41.2332],[28.79712,41.22968],[28.79779,41.22731],[28.79602,41.22583],[28.79653,41.2231],[28.79997,41.22164],[28.80563,41.22141],[28.81065,41.2185],[28.81084,41.21614],[28.81467,41.21312],[28.81606,41.21075],[28.81842,41.21022],[28.82079,41.20724],[28.81924,41.203],[28.81605,41.20105],[28.81915,41.19664],[28.81819,41.19416],[28.8193,41.19224],[28.81788,41.1868],[28.81964,41.18351],[28.82144,41.18252],[28.81976,41.17898],[28.81955,41.17516],[28.81423,41.17557],[28.8143,41.16646],[28.81387,41.16349],[28.81622,41.16],[28.81556,41.15566],[28.81635,41.1529],[28.81725,41.14295],[28.81515,41.14118],[28.81519,41.13633],[28.8203,41.13636],[28.82385,41.13523],[28.82625,41.13567],[28.8336,41.13465],[28.8326,41.13642],[28.83277,41.14173],[28.84138,41.14823],[28.84274,41.15096],[28.84567,41.15183],[28.84826,41.1542],[28.85345,41.15555],[28.85465,41.1569],[28.86139,41.15981],[28.86231,41.15868],[28.86694,41.15715],[28.86572,41.153],[28.86779,41.15172],[28.87064,41.15254],[28.87435,41.15161],[28.87578,41.15034],[28.87554,41.14667],[28.87394,41.14373],[28.87487,41.14233],[28.87789,41.14284],[28.87995,41.14609],[28.88308,41.14691],[28.88512,41.14514],[28.8882,41.13904],[28.8907,41.13668],[28.89607,41.13511],[28.89925,41.13319],[28.90126,41.12848],[28.90654,41.12469],[28.90787,41.11987],[28.91043,41.11761],[28.91138,41.11443],[28.91813,41.11474],[28.92164,41.10917],[28.92167,41.10677],[28.917,41.09767],[28.92118,41.09428],[28.92242,41.09321],[28.91938,41.089],[28.91878,41.08624],[28.91573,41.0791],[28.91756,41.07496],[28.91631,41.07283],[28.91756,41.06874],[28.92117,41.06692],[28.92389,41.06726],[28.92727,41.07003],[28.93235,41.06915],[28.93437,41.06266],[28.93682,41.0611],[28.93825,41.05781],[28.93512,41.05657],[28.92948,41.05587],[28.9272,41.05437],[28.9234,41.05483],[28.92129,41.05349],[28.9165,41.05543],[28.91592,41.05392],[28.91097,41.05158],[28.91204,41.04958],[28.91462,41.04785],[28.9182,41.04238],[28.91576,41.04283],[28.91662,41.03937],[28.91913,41.03598],[28.9211,41.0313],[28.92401,41.02869],[28.9293,41.02459],[28.93494,41.02934],[28.93613,41.03134],[28.94003,41.03332],[28.93938,41.03789],[28.94457,41.04076],[28.93997,41.04227],[28.93818,41.04682],[28.93515,41.04973],[28.93548,41.05179],[28.93872,41.05508],[28.94689,41.05741],[28.94526,41.06227],[28.94808,41.06472],[28.9513,41.06518],[28.9554,41.06813],[28.95714,41.07437],[28.96362,41.08034],[28.9629,41.08327],[28.96467,41.08589],[28.96807,41.08611],[28.96802,41.09048],[28.96697,41.09222],[28.95997,41.09693],[28.95728,41.09981],[28.95395,41.1008],[28.95387,41.10486],[28.96015,41.10671]]]},"properties":{"id":1766103,"name":"Eyüpsultan"}},{"type":"Feature","geometry":{"type":"Polygon","coordinates":[[[28.91992,40.98792],[28.92534,40.98845],[28.92961,40.99355],[28.93313,40.99625],[28.93459,40.99941],[28.93718,41.00127],[28.93876,40.99882],[28.9421,40.9969],[28.9474,40.99624],[28.95343,40.99837],[28.95287,41.00122],[28.95548,41.00238],[28.96881,41.00199],[28.97308,41.00098],[28.98013,41.00204],[28.98632,41.00675],[28.98811,41.01245],[28.98685,41.01703],[28.98392,41.01756],[28.98178,41.0167],[28.9769,41.01667],[28.96963,41.01963],[28.96637,41.01953],[28.96125,41.02376],[28.95746,41.02841],[28.95322,41.02919],[28.94974,41.03236],[28.94924,41.0353],[28.94736,41.03637],[28.94457,41.04076],[28.93938,41.03789],[28.94003,41.03332],[28.93613,41.03134],[28.93494,41.02934],[28.9293,41.02459],[28.92521,41.02081],[28.92292,41.01733],[28.92175,41.01332],[28.922,41.00817],[28.92031,40.99981],[28.92246,40.99205],[28.92071,40.99053],[28.91992,40.98792]]]},"properties":{"id":1766104,"name":"Fatih"}},{"type":"Feature","geometry":{"type":"Polygon","coordinates":[[[28.91097,41.05158],[28.91592,41.05392],[28.9165,41.05543],[28.92129,41.05349],[28.9234,41.05483],[28.9272,41.05437],[28.92948,41.05587],[28.93512,41.05657],[28.93825,41.05781],[28.93682,41.0611],[28.93437,41.06266],[28.93235,41.06915],[28.92727,41.07003],[28.92389,41.06726],[28.92117,41.06692],[28.91756,41.06874],[28.91631,41.07283],[28.91756,41.07496],[28.91573,41.0791],[28.91878,41.08624],[28.91938,41.089],[28.92242,41.09321],[28.92118,41.09428],[28.9129,41.0918],[28.90526,41.09073],[28.89554,41.09117],[28.88795,41.08997],[28.88006,41.08654],[28.87436,41.0816],[28.87892,41.07719],[28.89441,41.06937],[28.90034,41.0651],[28.90286,41.06032],[28.90944,41.05549],[28.91097,41.05158]]]},"properties":{"id":1766105,"name":"Gaziosmanpaşa"}},{"type":"Feature","geometry":{"type":"Polygon","coordinates":[[[28.90063,41.02069],[28.89851,41.01903],[28.89231,41.01875],[28.88979,41.0174],[28.88675,41.01741],[28.88733,41.02077],[28.88571,41.02201],[28.88705,41.02514],[28.89071,41.02947],[28.88546,41.034],[28.87649,41.03185],[28.87443,41.0368],[28.87122,41.03845],[28.87269,41.02795],[28.86917,41.02909],[28.86309,41.02981],[28.85909,41.02873],[28.85948,41.02557],[28.86256,41.02134],[28.86308,41.01905],[28.86015,41.01756],[28.86149,41.01571],[28.86815,41.0095],[28.87059,41.00627],[28.87406,41.00766],[28.87712,41.01172],[28.87808,41.01433],[28.88028,41.01456],[28.88155,41.00626],[28.88576,41.0017],[28.89049,41.0032],[28.89595,41.00669],[28.89916,41.01021],[28.9002,41.01309],[28.90223,41.01457],[28.90065,41.01728],[28.90063,41.02069]]]},"properties":{"id":1766106,"name":"Güngören"}},{"type":"Feature","geometry":{"type":"Polygon","coordinates":[[[28.82385,41.13523],[28.82713,41.13117],[28.83532,41.12613],[28.84419,41.12005],[28.84576,41.11743],[28.84503,41.11484],[28.84558,41.11215],[28.84766,41.11113],[28.85015,41.10595],[28.85188,41.10629],[28.85528,41.10064],[28.86316,41.09077],[28.87096,41.08528],[28.87436,41.0816],[28.88006,41.08654],[28.88795,41.08997],[28.89554,41.09117],[28.90526,41.09073],[28.9129,41.0918],[28.92118,41.09428],[28.917,41.09767],[28.92167,41.10677],[28.92164,41.10917],[28.91813,41.11474],[28.91138,41.11443],[28.91043,41.11761],[28.90787,41.11987],[28.90654,41.12469],[28.90126,41.12848],[28.89925,41.13319],[28.89607,41.13511],[28.8907,41.13668],[28.8882,41.13904],[28.88512,41.14514],[28.88308,41.14691],[28.87995,41.14609],[28.87789,41.14284],[28.87487,41.14233],[28.87394,41.14373],[28.87554,41.14667],[28.87578,41.15034],[28.87435,41.15161],[28.87064,41.15254],[28.86779,41.15172],[28.86572,41.153],[28.86694,41.15715],[28.86231,41.15868],[28.86139,41.15981],[28.85465,41.1569],[28.85345,41.15555],[28.84826,41.1542],[28.84567,41.15183],[28.84274,41.15096],[28.84138,41.14823],[28.83277,41.14173],[28.8326,41.13642],[28.8336,41.13465],[28.82625,41.13567],[28.82385,41.13523]]]},"properties":{"id":1766108,"name":"Sultangazi"}},{"type":"Feature","geometry":{"type":"Polygon","coordinates":[[[28.91992,40.98792],[28.92071,40.99053],[28.92246,40.99205],[28.92031,40.99981],[28.922,41.00817],[28.92175,41.01332],[28.92292,41.01733],[28.92521,41.02081],[28.9293,41.02459],[28.92401,41.02869],[28.92177,41.02434],[28.91488,41.03078],[28.91221,41.0323],[28.90838,41.03056],[28.90262,41.02922],[28.89912,41.02768],[28.89938,41.0237],[28.90063,41.02069],[28.90065,41.01728],[28.90223,41.01457],[28.9002,41.01309],[28.89916,41.01021],[28.89595,41.00669],[28.89315,41.0026],[28.8919,40.99832],[28.89421,40.99557],[28.89236,40.99264],[28.89097,40.9837],[28.88995,40.98194],[28.89103,40.98003],[28.89232,40.98123],[28.89993,40.97895],[28.90301,40.97926],[28.90726,40.98098],[28.91178,40.98579],[28.9174,40.98788],[28.91992,40.98792]]]},"properties":{"id":1766109,"name":"Zeytinburnu"}},{"type":"Feature","geometry":{"type":"Polygon","coordinates":[[[28.81163,41.06129],[28.80507,41.06162],[28.79695,41.06361],[28.7904,41.06408],[28.77755,41.06231],[28.76685,41.06243],[28.75791,41.06118],[28.75228,41.06102],[28.74464,41.06209],[28.74527,41.05912],[28.74217,41.05686],[28.74057,41.05251],[28.73979,41.04457],[28.7452,41.02525],[28.7566,40.98315],[28.75677,40.97998],[28.76227,40.98019],[28.76426,40.98156],[28.76721,40.98158],[28.76846,40.97983],[28.77519,40.97736],[28.77529,40.98404],[28.777,40.98601],[28.77957,40.98443],[28.7885,40.98664],[28.79239,40.98918],[28.79455,40.98812],[28.79842,40.98902],[28.79724,40.99728],[28.80044,40.9997],[28.80311,41.00051],[28.8086,41.00018],[28.81157,40.99887],[28.81521,40.99504],[28.81888,40.99353],[28.81621,40.99544],[28.81351,40.99931],[28.80941,41.00742],[28.80824,41.01506],[28.80668,41.01536],[28.80642,41.02039],[28.80853,41.02495],[28.80839,41.02795],[28.81096,41.02717],[28.81084,41.03566],[28.80998,41.03989],[28.80839,41.04375],[28.80814,41.04884],[28.81163,41.06129]]]},"properties":{"id":7786498,"name":"Küçükçekmece"}}],"attribution":"© OpenStreetMap contributors, ODbL 1.0"}